{
  "type": "FeatureCollection",
  "features": [
    {
      "type": "Feature",
      "properties": {
        "creator": "BRouter-1.7.9",
        "name": "Forest-NoelSt",
        "track-length": "245",
        "filtered ascend": "0",
        "plain-ascend": "1",
        "total-time": "20",
        "total-energy": "10263",
        "cost": "490",
        "messages": [
          [
            "Longitude",
            "Latitude",
            "Elevation",
            "Distance",
            "CostPerKm",
            "ElevCost",
            "TurnCost",
            "NodeCost",
            "InitialCost",
            "WayTags",
            "NodeTags",
            "Time",
            "Energy"
          ],
          [
            "-1167234",
            "52965427",
            "43",
            "14",
            "2000",
            "0",
            "0",
            "0",
            "0",
            "reversedirection=yes railway=tram",
            "railway=tram_stop",
            "1",
            "529"
          ],
          [
            "-1167255",
            "52965464",
            "43",
            "4",
            "2000",
            "0",
            "0",
            "0",
            "0",
            "reversedirection=yes railway=tram",
            "railway=switch",
            "1",
            "673"
          ],
          [
            "-1167594",
            "52965733",
            "42",
            "38",
            "2000",
            "0",
            "0",
            "0",
            "0",
            "railway=tram",
            "railway=switch",
            "4",
            "1834"
          ],
          [
            "-1167627",
            "52965765",
            "42",
            "4",
            "2000",
            "0",
            "0",
            "0",
            "0",
            "railway=tram",
            "crossing=traffic_signals railway=unknown",
            "4",
            "1948"
          ],
          [
            "-1167726",
            "52965857",
            "42",
            "12",
            "2000",
            "0",
            "0",
            "0",
            "0",
            "railway=tram",
            "estimated_crossing_class=0 railway=unknown",
            "5",
            "2304"
          ],
          [
            "-1167811",
            "52965967",
            "41",
            "14",
            "2000",
            "0",
            "0",
            "0",
            "0",
            "railway=tram",
            "highway=crossing crossing=traffic_signals",
            "6",
            "2715"
          ],
          [
            "-1167954",
            "52966199",
            "42",
            "28",
            "2000",
            "0",
            "0",
            "0",
            "0",
            "railway=tram",
            "railway=unknown",
            "9",
            "3722"
          ],
          [
            "-1168068",
            "52966376",
            "42",
            "21",
            "2000",
            "0",
            "0",
            "0",
            "0",
            "railway=tram",
            "railway=unknown",
            "10",
            "4598"
          ],
          [
            "-1168175",
            "52966549",
            "43",
            "21",
            "2000",
            "0",
            "0",
            "0",
            "0",
            "railway=tram",
            "highway=traffic_signals traffic_signals:direction=forward railway=unknown",
            "12",
            "5525"
          ],
          [
            "-1168225",
            "52966628",
            "43",
            "9",
            "2000",
            "0",
            "0",
            "0",
            "0",
            "railway=tram",
            "railway=unknown",
            "13",
            "5940"
          ],
          [
            "-1168260",
            "52966688",
            "43",
            "7",
            "2000",
            "0",
            "0",
            "0",
            "0",
            "railway=tram",
            "railway=unknown",
            "13",
            "6263"
          ],
          [
            "-1168660",
            "52967302",
            "45",
            "73",
            "2000",
            "0",
            "0",
            "0",
            "0",
            "railway=tram",
            "",
            "19",
            "10263"
          ]
        ],
        "times": [
          0,
          1.12,
          1.44,
          2.08,
          3.04,
          4.48,
          4.8,
          5.76,
          6.88,
          9.12,
          10.8,
          12.48,
          13.2,
          13.76,
          19.6
        ]
      },
      "geometry": {
        "type": "LineString",
        "coordinates": [
          [
            -1.167168,
            52.965304,
            44.5
          ],
          [
            -1.167234,
            52.965427,
            43.75
          ],
          [
            -1.167255,
            52.965464,
            43.5
          ],
          [
            -1.167311,
            52.965528,
            43
          ],
          [
            -1.16741,
            52.965617,
            42.75
          ],
          [
            -1.167594,
            52.965733,
            42.25
          ],
          [
            -1.167627,
            52.965765,
            42
          ],
          [
            -1.167726,
            52.965857,
            42
          ],
          [
            -1.167811,
            52.965967,
            41.75
          ],
          [
            -1.167954,
            52.966199,
            42.25
          ],
          [
            -1.168068,
            52.966376,
            42.75
          ],
          [
            -1.168175,
            52.966549,
            43
          ],
          [
            -1.168225,
            52.966628,
            43.25
          ],
          [
            -1.16826,
            52.966688,
            43.25
          ],
          [
            -1.16866,
            52.967302,
            45
          ]
        ]
      }
    }
  ]
}