{
  "type": "FeatureCollection",
  "features": [
    {
      "type": "Feature",
      "properties": {
        "creator": "BRouter-1.7.10",
        "name": "RoyalCentre-BeestonCentre (7.7km)",
        "track-length": "7673",
        "filtered ascend": "8",
        "plain-ascend": "-17",
        "total-time": "614",
        "total-energy": "321025",
        "cost": "15346",
        "messages": [
          [
            "Longitude",
            "Latitude",
            "Elevation",
            "Distance",
            "CostPerKm",
            "ElevCost",
            "TurnCost",
            "NodeCost",
            "InitialCost",
            "WayTags",
            "NodeTags",
            "Time",
            "Energy"
          ],
          [
            "-1151685",
            "52954984",
            "49",
            "28",
            "2000",
            "0",
            "0",
            "0",
            "0",
            "reversedirection=yes railway=tram",
            "railway=unknown",
            "2",
            "1123"
          ],
          [
            "-1151599",
            "52954921",
            "49",
            "9",
            "2000",
            "0",
            "0",
            "0",
            "0",
            "reversedirection=yes railway=tram",
            "railway=unknown",
            "2",
            "1446"
          ],
          [
            "-1151501",
            "52954857",
            "48",
            "10",
            "2000",
            "0",
            "0",
            "0",
            "0",
            "reversedirection=yes railway=tram",
            "railway=unknown",
            "3",
            "1735"
          ],
          [
            "-1151441",
            "52954806",
            "47",
            "7",
            "2000",
            "0",
            "0",
            "0",
            "0",
            "reversedirection=yes railway=tram",
            "railway=unknown",
            "4",
            "1916"
          ],
          [
            "-1151386",
            "52954744",
            "47",
            "8",
            "2000",
            "0",
            "0",
            "0",
            "0",
            "reversedirection=yes railway=tram",
            "railway=unknown",
            "4",
            "2082"
          ],
          [
            "-1151313",
            "52954543",
            "45",
            "23",
            "2000",
            "0",
            "0",
            "0",
            "0",
            "reversedirection=yes railway=tram",
            "railway=unknown",
            "6",
            "2966"
          ],
          [
            "-1151303",
            "52953687",
            "39",
            "95",
            "2000",
            "0",
            "0",
            "0",
            "0",
            "reversedirection=yes railway=tram",
            "railway=unknown",
            "14",
            "3544"
          ],
          [
            "-1151290",
            "52953637",
            "39",
            "6",
            "2000",
            "0",
            "0",
            "0",
            "0",
            "reversedirection=yes railway=tram",
            "railway=unknown",
            "14",
            "3639"
          ],
          [
            "-1151057",
            "52953300",
            "37",
            "40",
            "2000",
            "0",
            "0",
            "0",
            "0",
            "reversedirection=yes railway=tram",
            "railway=switch",
            "18",
            "4211"
          ],
          [
            "-1150511",
            "52952988",
            "34",
            "54",
            "2000",
            "0",
            "0",
            "0",
            "0",
            "reversedirection=yes railway=tram",
            "railway=unknown",
            "22",
            "4643"
          ],
          [
            "-1150212",
            "52953027",
            "35",
            "21",
            "2000",
            "0",
            "0",
            "0",
            "0",
            "reversedirection=yes railway=tram",
            "wheelchair=yes railway=tram_stop",
            "24",
            "5097"
          ],
          [
            "-1149222",
            "52953150",
            "36",
            "68",
            "2000",
            "0",
            "0",
            "0",
            "0",
            "reversedirection=yes railway=tram",
            "railway=unknown",
            "29",
            "7204"
          ],
          [
            "-1148843",
            "52953159",
            "35",
            "25",
            "2000",
            "0",
            "0",
            "0",
            "0",
            "reversedirection=yes railway=tram",
            "railway=unknown",
            "31",
            "8006"
          ],
          [
            "-1148446",
            "52953165",
            "36",
            "27",
            "2000",
            "0",
            "0",
            "0",
            "0",
            "reversedirection=yes railway=tram",
            "railway=unknown",
            "33",
            "9102"
          ],
          [
            "-1148228",
            "52953166",
            "36",
            "15",
            "2000",
            "0",
            "0",
            "0",
            "0",
            "reversedirection=yes railway=tram",
            "railway=unknown",
            "34",
            "9751"
          ],
          [
            "-1147629",
            "52953159",
            "38",
            "40",
            "2000",
            "0",
            "0",
            "0",
            "0",
            "reversedirection=yes railway=tram",
            "railway=unknown",
            "38",
            "11052"
          ],
          [
            "-1147100",
            "52953155",
            "39",
            "36",
            "2000",
            "0",
            "0",
            "0",
            "0",
            "reversedirection=yes railway=tram",
            "railway=unknown",
            "40",
            "12688"
          ],
          [
            "-1145351",
            "52953103",
            "45",
            "135",
            "2000",
            "0",
            "0",
            "0",
            "0",
            "reversedirection=yes railway=tram",
            "railway=unknown",
            "51",
            "20294"
          ],
          [
            "-1145443",
            "52952986",
            "46",
            "14",
            "2000",
            "0",
            "0",
            "0",
            "0",
            "reversedirection=yes railway=tram",
            "wheelchair=yes railway=tram_stop",
            "52",
            "21140"
          ],
          [
            "-1145825",
            "52952469",
            "44",
            "64",
            "2000",
            "0",
            "0",
            "0",
            "0",
            "reversedirection=yes railway=tram",
            "railway=unknown",
            "58",
            "24330"
          ],
          [
            "-1145893",
            "52952301",
            "43",
            "19",
            "2000",
            "0",
            "0",
            "0",
            "0",
            "reversedirection=yes railway=tram",
            "railway=unknown",
            "59",
            "25482"
          ],
          [
            "-1145965",
            "52952029",
            "42",
            "31",
            "2000",
            "0",
            "0",
            "0",
            "0",
            "reversedirection=yes railway=tram",
            "railway=unknown",
            "62",
            "26893"
          ],
          [
            "-1146044",
            "52951857",
            "41",
            "20",
            "2000",
            "0",
            "0",
            "0",
            "0",
            "reversedirection=yes railway=tram",
            "railway=unknown",
            "63",
            "27637"
          ],
          [
            "-1146234",
            "52951542",
            "39",
            "37",
            "2000",
            "0",
            "0",
            "0",
            "0",
            "reversedirection=yes railway=tram",
            "railway=unknown",
            "66",
            "28566"
          ],
          [
            "-1146263",
            "52951498",
            "38",
            "5",
            "2000",
            "0",
            "0",
            "0",
            "0",
            "reversedirection=yes railway=tram",
            "railway=unknown",
            "66",
            "28683"
          ],
          [
            "-1146261",
            "52950726",
            "34",
            "87",
            "2000",
            "0",
            "0",
            "0",
            "0",
            "reversedirection=yes railway=tram",
            "railway=unknown",
            "73",
            "30684"
          ],
          [
            "-1146232",
            "52950648",
            "33",
            "9",
            "2000",
            "0",
            "0",
            "0",
            "0",
            "reversedirection=yes railway=tram",
            "crossing=traffic_signals railway=unknown",
            "74",
            "30911"
          ],
          [
            "-1146095",
            "52950467",
            "33",
            "22",
            "2000",
            "0",
            "0",
            "0",
            "0",
            "reversedirection=yes railway=tram",
            "crossing=uncontrolled railway=unknown",
            "76",
            "31525"
          ],
          [
            "-1146083",
            "52950455",
            "33",
            "2",
            "2000",
            "0",
            "0",
            "0",
            "0",
            "reversedirection=yes railway=tram",
            "highway=crossing crossing=uncontrolled",
            "76",
            "31584"
          ],
          [
            "-1145666",
            "52949148",
            "31",
            "150",
            "2000",
            "0",
            "0",
            "0",
            "0",
            "reversedirection=yes railway=tram",
            "railway=switch",
            "88",
            "37087"
          ],
          [
            "-1145594",
            "52948934",
            "30",
            "24",
            "2000",
            "0",
            "0",
            "0",
            "0",
            "reversedirection=yes railway=tram",
            "railway=unknown",
            "90",
            "38075"
          ],
          [
            "-1145579",
            "52948700",
            "30",
            "26",
            "2000",
            "0",
            "0",
            "0",
            "0",
            "railway=tram",
            "railway=switch",
            "92",
            "39162"
          ],
          [
            "-1145577",
            "52947611",
            "28",
            "122",
            "2000",
            "0",
            "0",
            "0",
            "0",
            "reversedirection=yes railway=tram",
            "crossing=uncontrolled railway=unknown",
            "102",
            "44394"
          ],
          [
            "-1145644",
            "52947130",
            "27",
            "54",
            "2000",
            "0",
            "0",
            "0",
            "0",
            "reversedirection=yes railway=tram",
            "crossing=uncontrolled railway=unknown",
            "106",
            "46746"
          ],
          [
            "-1145660",
            "52947005",
            "27",
            "14",
            "2000",
            "0",
            "0",
            "0",
            "0",
            "reversedirection=yes railway=tram",
            "railway=tram_stop",
            "107",
            "47357"
          ],
          [
            "-1145717",
            "52946586",
            "27",
            "47",
            "2000",
            "0",
            "0",
            "0",
            "0",
            "reversedirection=yes railway=tram",
            "crossing=uncontrolled railway=unknown",
            "111",
            "49414"
          ],
          [
            "-1145814",
            "52945373",
            "24",
            "135",
            "2000",
            "0",
            "0",
            "0",
            "0",
            "reversedirection=yes railway=tram",
            "",
            "122",
            "53098"
          ],
          [
            "-1145815",
            "52945347",
            "25",
            "3",
            "2000",
            "0",
            "0",
            "0",
            "0",
            "railway=tram",
            "railway=unknown",
            "122",
            "53098"
          ],
          [
            "-1145953",
            "52944953",
            "25",
            "45",
            "2000",
            "0",
            "0",
            "0",
            "0",
            "railway=tram",
            "railway=unknown",
            "126",
            "53445"
          ],
          [
            "-1146086",
            "52944864",
            "25",
            "13",
            "2000",
            "0",
            "0",
            "0",
            "0",
            "railway=tram",
            "railway=unknown",
            "127",
            "53666"
          ],
          [
            "-1146259",
            "52944800",
            "25",
            "14",
            "2000",
            "0",
            "0",
            "0",
            "0",
            "railway=tram",
            "highway=traffic_signals traffic_signals:direction=forward",
            "128",
            "53952"
          ],
          [
            "-1148245",
            "52944709",
            "25",
            "134",
            "2000",
            "0",
            "0",
            "0",
            "0",
            "railway=tram",
            "railway=switch",
            "139",
            "58263"
          ],
          [
            "-1148706",
            "52944693",
            "25",
            "32",
            "2000",
            "0",
            "0",
            "0",
            "0",
            "reversedirection=yes railway=tram",
            "railway=unknown",
            "141",
            "58959"
          ],
          [
            "-1148915",
            "52944716",
            "25",
            "14",
            "2000",
            "0",
            "0",
            "0",
            "0",
            "railway=tram",
            "railway=unknown",
            "142",
            "59329"
          ],
          [
            "-1150870",
            "52945036",
            "25",
            "136",
            "2000",
            "0",
            "0",
            "0",
            "0",
            "railway=tram",
            "",
            "153",
            "63783"
          ],
          [
            "-1152743",
            "52944944",
            "25",
            "129",
            "2000",
            "0",
            "0",
            "0",
            "0",
            "reversedirection=yes railway=tram",
            "railway=unknown",
            "163",
            "69475"
          ],
          [
            "-1156858",
            "52943336",
            "25",
            "356",
            "2000",
            "0",
            "0",
            "0",
            "0",
            "reversedirection=yes railway=tram",
            "railway=tram_stop",
            "192",
            "84438"
          ],
          [
            "-1159795",
            "52942238",
            "25",
            "243",
            "2000",
            "0",
            "0",
            "0",
            "0",
            "reversedirection=yes railway=tram",
            "",
            "211",
            "95698"
          ],
          [
            "-1162059",
            "52941739",
            "26",
            "195",
            "2000",
            "0",
            "0",
            "0",
            "0",
            "railway=tram",
            "railway=switch",
            "227",
            "104288"
          ],
          [
            "-1162765",
            "52941772",
            "26",
            "48",
            "2000",
            "0",
            "0",
            "0",
            "0",
            "railway=tram",
            "railway=unknown",
            "231",
            "106476"
          ],
          [
            "-1162831",
            "52941775",
            "26",
            "4",
            "2000",
            "0",
            "0",
            "0",
            "0",
            "railway=tram",
            "railway=unknown",
            "231",
            "106657"
          ],
          [
            "-1163414",
            "52941802",
            "26",
            "39",
            "2000",
            "0",
            "0",
            "0",
            "0",
            "railway=tram",
            "railway=unknown",
            "234",
            "108412"
          ],
          [
            "-1163511",
            "52941807",
            "26",
            "7",
            "2000",
            "0",
            "0",
            "0",
            "0",
            "railway=tram",
            "crossing=unknown railway=unknown",
            "235",
            "108725"
          ],
          [
            "-1165190",
            "52941825",
            "26",
            "113",
            "2000",
            "0",
            "0",
            "0",
            "0",
            "railway=tram",
            "railway=tram_stop",
            "244",
            "113747"
          ],
          [
            "-1171228",
            "52941121",
            "26",
            "428",
            "2000",
            "0",
            "0",
            "0",
            "0",
            "railway=tram",
            "",
            "278",
            "132643"
          ],
          [
            "-1171807",
            "52941286",
            "27",
            "43",
            "2000",
            "0",
            "0",
            "0",
            "0",
            "reversedirection=yes railway=tram",
            "",
            "281",
            "134519"
          ],
          [
            "-1173031",
            "52941748",
            "26",
            "97",
            "2000",
            "0",
            "0",
            "0",
            "0",
            "railway=tram",
            "highway=crossing crossing=uncontrolled",
            "289",
            "139406"
          ],
          [
            "-1176758",
            "52943851",
            "25",
            "354",
            "2000",
            "0",
            "0",
            "0",
            "0",
            "railway=tram",
            "highway=crossing crossing=unmarked",
            "318",
            "154452"
          ],
          [
            "-1177188",
            "52943862",
            "25",
            "29",
            "2000",
            "0",
            "0",
            "0",
            "0",
            "railway=tram",
            "railway=tram_stop",
            "320",
            "155473"
          ],
          [
            "-1177350",
            "52943868",
            "25",
            "11",
            "2000",
            "0",
            "0",
            "0",
            "0",
            "railway=tram",
            "highway=crossing crossing=unmarked",
            "321",
            "155879"
          ],
          [
            "-1178940",
            "52944108",
            "26",
            "112",
            "2000",
            "0",
            "0",
            "0",
            "0",
            "railway=tram",
            "railway=unknown",
            "330",
            "160558"
          ],
          [
            "-1179283",
            "52944199",
            "25",
            "25",
            "2000",
            "0",
            "0",
            "0",
            "0",
            "railway=tram",
            "railway=unknown",
            "332",
            "161701"
          ],
          [
            "-1179336",
            "52944202",
            "25",
            "4",
            "2000",
            "0",
            "0",
            "0",
            "0",
            "railway=tram",
            "railway=unknown",
            "332",
            "161867"
          ],
          [
            "-1179456",
            "52944192",
            "25",
            "8",
            "2000",
            "0",
            "0",
            "0",
            "0",
            "railway=tram",
            "railway=unknown",
            "333",
            "162183"
          ],
          [
            "-1183431",
            "52942706",
            "26",
            "346",
            "2000",
            "0",
            "0",
            "0",
            "0",
            "railway=tram",
            "railway=crossing",
            "360",
            "177839"
          ],
          [
            "-1183841",
            "52942421",
            "26",
            "42",
            "2000",
            "0",
            "0",
            "0",
            "0",
            "railway=tram",
            "railway=tram_stop",
            "364",
            "179693"
          ],
          [
            "-1183880",
            "52942394",
            "26",
            "4",
            "2000",
            "0",
            "0",
            "0",
            "0",
            "railway=tram",
            "railway=crossing",
            "364",
            "179869"
          ],
          [
            "-1187945",
            "52939241",
            "26",
            "473",
            "2000",
            "0",
            "0",
            "0",
            "0",
            "railway=tram",
            "",
            "402",
            "200686"
          ],
          [
            "-1187110",
            "52937929",
            "26",
            "166",
            "2000",
            "0",
            "0",
            "0",
            "0",
            "reversedirection=yes railway=tram",
            "railway=crossing",
            "415",
            "207988"
          ],
          [
            "-1187470",
            "52937677",
            "26",
            "37",
            "2000",
            "0",
            "0",
            "0",
            "0",
            "reversedirection=yes railway=tram",
            "railway=crossing",
            "418",
            "209615"
          ],
          [
            "-1187996",
            "52937377",
            "26",
            "49",
            "2000",
            "0",
            "0",
            "0",
            "0",
            "reversedirection=yes railway=tram",
            "railway=crossing",
            "422",
            "211734"
          ],
          [
            "-1188331",
            "52937221",
            "26",
            "28",
            "2000",
            "0",
            "0",
            "0",
            "0",
            "reversedirection=yes railway=tram",
            "railway=tram_stop",
            "424",
            "212975"
          ],
          [
            "-1188565",
            "52937113",
            "26",
            "20",
            "2000",
            "0",
            "0",
            "0",
            "0",
            "reversedirection=yes railway=tram",
            "railway=crossing",
            "426",
            "213859"
          ],
          [
            "-1189068",
            "52936587",
            "25",
            "70",
            "2000",
            "0",
            "0",
            "0",
            "0",
            "reversedirection=yes railway=tram",
            "railway=crossing",
            "432",
            "216893"
          ],
          [
            "-1189635",
            "52936252",
            "26",
            "54",
            "2000",
            "0",
            "0",
            "0",
            "0",
            "reversedirection=yes railway=tram",
            "railway=crossing",
            "436",
            "219197"
          ],
          [
            "-1189789",
            "52936175",
            "26",
            "13",
            "2000",
            "0",
            "0",
            "0",
            "0",
            "reversedirection=yes railway=tram",
            "railway=crossing",
            "437",
            "219786"
          ],
          [
            "-1200105",
            "52932425",
            "27",
            "812",
            "2000",
            "0",
            "0",
            "0",
            "0",
            "reversedirection=yes railway=tram",
            "railway=switch",
            "502",
            "256268"
          ],
          [
            "-1201810",
            "52932171",
            "26",
            "120",
            "2000",
            "0",
            "0",
            "0",
            "0",
            "reversedirection=yes railway=tram",
            "railway=unknown",
            "511",
            "261605"
          ],
          [
            "-1202413",
            "52932182",
            "26",
            "41",
            "2000",
            "0",
            "0",
            "0",
            "0",
            "reversedirection=yes railway=tram",
            "railway=tram_stop",
            "515",
            "263395"
          ],
          [
            "-1202553",
            "52932181",
            "26",
            "9",
            "2000",
            "0",
            "0",
            "0",
            "0",
            "reversedirection=yes railway=tram",
            "railway=unknown",
            "515",
            "263789"
          ],
          [
            "-1202919",
            "52932185",
            "27",
            "25",
            "2000",
            "0",
            "0",
            "0",
            "0",
            "reversedirection=yes railway=tram",
            "railway=unknown",
            "517",
            "264919"
          ],
          [
            "-1203079",
            "52932175",
            "27",
            "11",
            "2000",
            "0",
            "0",
            "0",
            "0",
            "reversedirection=yes railway=tram",
            "railway=unknown",
            "518",
            "265420"
          ],
          [
            "-1203180",
            "52932153",
            "27",
            "7",
            "2000",
            "0",
            "0",
            "0",
            "0",
            "reversedirection=yes railway=tram",
            "railway=unknown",
            "519",
            "265738"
          ],
          [
            "-1203708",
            "52931809",
            "26",
            "53",
            "2000",
            "0",
            "0",
            "0",
            "0",
            "reversedirection=yes railway=tram",
            "railway=unknown",
            "523",
            "268005"
          ],
          [
            "-1205116",
            "52930502",
            "26",
            "174",
            "2000",
            "0",
            "0",
            "0",
            "0",
            "reversedirection=yes railway=tram",
            "railway=unknown",
            "537",
            "275097"
          ],
          [
            "-1207669",
            "52928449",
            "27",
            "285",
            "2000",
            "0",
            "0",
            "0",
            "0",
            "reversedirection=yes railway=tram",
            "railway=unknown",
            "560",
            "288164"
          ],
          [
            "-1207792",
            "52928363",
            "27",
            "13",
            "2000",
            "0",
            "0",
            "0",
            "0",
            "reversedirection=yes railway=tram",
            "railway=unknown",
            "561",
            "288764"
          ],
          [
            "-1208380",
            "52928041",
            "27",
            "52",
            "2000",
            "0",
            "0",
            "0",
            "0",
            "reversedirection=yes railway=tram",
            "estimated_crossing_class=2 railway=unknown",
            "565",
            "291020"
          ],
          [
            "-1208502",
            "52927990",
            "27",
            "10",
            "2000",
            "0",
            "0",
            "0",
            "0",
            "reversedirection=yes railway=tram",
            "railway=unknown",
            "566",
            "291503"
          ],
          [
            "-1209043",
            "52927830",
            "28",
            "41",
            "2000",
            "0",
            "0",
            "0",
            "0",
            "reversedirection=yes railway=tram",
            "railway=tram_stop",
            "569",
            "293617"
          ],
          [
            "-1213443",
            "52924984",
            "30",
            "441",
            "2000",
            "0",
            "0",
            "0",
            "0",
            "reversedirection=yes railway=tram",
            "railway=switch",
            "604",
            "315036"
          ],
          [
            "-1214697",
            "52925139",
            "31",
            "111",
            "2000",
            "0",
            "0",
            "0",
            "0",
            "reversedirection=yes railway=tram",
            "railway=tram_stop",
            "613",
            "320973"
          ],
          [
            "-1214703",
            "52925143",
            "32",
            "1",
            "2000",
            "0",
            "0",
            "0",
            "0",
            "reversedirection=yes railway=tram",
            "",
            "613",
            "321025"
          ]
        ],
        "times": [
          0,
          2.24,
          2.48,
          2.96,
          3.76,
          4.32,
          4.96,
          6.16,
          6.8,
          13.92,
          14.4,
          14.88,
          15.44,
          16.24,
          16.72,
          18.08,
          20.08,
          20.56,
          21.04,
          21.68,
          22,
          22.4,
          24.08,
          28.16,
          29.52,
          31.52,
          33.68,
          34.88,
          38.08,
          40.96,
          42.48,
          43.36,
          44.16,
          45.84,
          48.72,
          49.2,
          49.6,
          50,
          50.48,
          50.96,
          51.44,
          51.76,
          52.88,
          56.08,
          58,
          58.56,
          59.52,
          62,
          63.6,
          65.28,
          66.56,
          66.96,
          67.84,
          68.96,
          72.8,
          73.92,
          74.64,
          75.6,
          76.4,
          76.56,
          77.52,
          78.56,
          79.28,
          86.96,
          88.56,
          90.48,
          92.56,
          94.56,
          96.96,
          98.72,
          101.12,
          102.32,
          106.64,
          107.76,
          111.52,
          118.24,
          122.32,
          122.56,
          123.92,
          124.4,
          125.04,
          125.6,
          126.16,
          126.8,
          127.2,
          127.84,
          128.32,
          128.72,
          128.96,
          129.2,
          129.44,
          129.76,
          131.92,
          133.12,
          134.48,
          135.28,
          135.52,
          136.08,
          136.48,
          137.2,
          137.6,
          138.08,
          138.16,
          138.56,
          139.04,
          139.44,
          139.68,
          140.72,
          141.6,
          142.72,
          144.24,
          144.64,
          147.36,
          148.4,
          149.76,
          153.6,
          154.8,
          156.8,
          158.96,
          160.4,
          161.12,
          162.16,
          163.2,
          163.92,
          165.04,
          166.16,
          167.28,
          168.64,
          169.12,
          170.64,
          171.76,
          172.48,
          173.52,
          174.16,
          175.28,
          176.4,
          177.36,
          178.08,
          184,
          186,
          186.56,
          187.28,
          187.76,
          189.44,
          192.4,
          193.44,
          195.68,
          196.56,
          197.68,
          200.72,
          201.44,
          202.32,
          204,
          205.12,
          206.4,
          207.2,
          208.64,
          209.36,
          209.76,
          211.04,
          211.84,
          212.88,
          215.12,
          215.84,
          216.32,
          217.04,
          217.68,
          218.16,
          218.96,
          220.72,
          221.6,
          227.44,
          231.28,
          231.6,
          233.6,
          234.72,
          235.28,
          236.48,
          244.32,
          247.28,
          248.24,
          249.12,
          249.92,
          250.8,
          252,
          252.72,
          262,
          263.36,
          264.72,
          265.44,
          266.72,
          268.16,
          268.72,
          270.72,
          275.44,
          277.12,
          278.56,
          280.32,
          282,
          286.72,
          288.88,
          289.76,
          291.68,
          293.04,
          294.24,
          294.32,
          297.04,
          299.36,
          300.64,
          301.92,
          305.6,
          308.56,
          309.52,
          310.24,
          311.36,
          312.72,
          313.84,
          314.8,
          315.28,
          317.2,
          318.08,
          320.4,
          321.28,
          322.72,
          322.88,
          325.52,
          326.56,
          327.28,
          328.08,
          330.24,
          331.44,
          331.92,
          332.24,
          332.56,
          333.2,
          333.84,
          334.64,
          336.56,
          337.84,
          338.88,
          340,
          340.56,
          341.36,
          342,
          342.48,
          343.04,
          349.04,
          350.64,
          351.68,
          352.8,
          354.4,
          355.6,
          356.56,
          357.76,
          359.92,
          360.88,
          364.24,
          364.56,
          366.64,
          373.76,
          378.56,
          382.64,
          384.24,
          385.76,
          391.04,
          395.04,
          396.24,
          397.2,
          398,
          398.8,
          399.6,
          400.4,
          401.2,
          402.4,
          410.72,
          411.68,
          412.32,
          412.8,
          413.6,
          414.24,
          414.88,
          415.36,
          415.68,
          416.8,
          417.52,
          418.64,
          420.56,
          422.56,
          424.8,
          426.4,
          427.84,
          428.4,
          428.8,
          429.52,
          430.56,
          431.52,
          432,
          432.96,
          433.84,
          436.32,
          436.88,
          437.36,
          437.84,
          439.76,
          447.68,
          447.84,
          448.88,
          459.04,
          459.36,
          459.68,
          460.24,
          460.96,
          462,
          472.24,
          473.6,
          474.88,
          480.16,
          482,
          501.44,
          502.32,
          503.84,
          505.2,
          506.56,
          508.16,
          509.2,
          510.56,
          511.92,
          515.2,
          515.92,
          516.48,
          517.92,
          518.8,
          519.36,
          519.92,
          521.04,
          523.6,
          531.76,
          534.08,
          537.52,
          540.32,
          541.68,
          542.88,
          543.2,
          553.44,
          559.12,
          559.52,
          560.32,
          560.88,
          561.36,
          563.04,
          563.68,
          564.8,
          565.12,
          565.2,
          565.44,
          565.52,
          566.16,
          566.32,
          567.6,
          569.6,
          572.4,
          574,
          574.64,
          576.16,
          577.76,
          580.56,
          582.56,
          583.84,
          588,
          593.6,
          596.16,
          596.8,
          598.4,
          600.4,
          600.48,
          600.96,
          602.72,
          603.28,
          604.88,
          606.96,
          607.68,
          608.16,
          608.88,
          609.52,
          610.08,
          610.64,
          613.76,
          613.84
        ]
      },
      "geometry": {
        "type": "LineString",
        "coordinates": [
          [
            -1.151975,
            52.95517,
            50.25
          ],
          [
            -1.151685,
            52.954984,
            49.75
          ],
          [
            -1.151654,
            52.954961,
            49.5
          ],
          [
            -1.151599,
            52.954921,
            49
          ],
          [
            -1.151501,
            52.954857,
            48.25
          ],
          [
            -1.151441,
            52.954806,
            47.75
          ],
          [
            -1.151386,
            52.954744,
            47
          ],
          [
            -1.151322,
            52.954618,
            46
          ],
          [
            -1.151313,
            52.954543,
            45.5
          ],
          [
            -1.151313,
            52.953742,
            39.75
          ],
          [
            -1.151303,
            52.953687,
            39.5
          ],
          [
            -1.15129,
            52.953637,
            39
          ],
          [
            -1.151274,
            52.953575,
            38.75
          ],
          [
            -1.151223,
            52.953486,
            38.5
          ],
          [
            -1.151185,
            52.953434,
            38.25
          ],
          [
            -1.151057,
            52.9533,
            37.5
          ],
          [
            -1.15087,
            52.953108,
            36
          ],
          [
            -1.150815,
            52.953064,
            35.75
          ],
          [
            -1.150741,
            52.953027,
            35.5
          ],
          [
            -1.15064,
            52.952998,
            35
          ],
          [
            -1.150584,
            52.952988,
            34.75
          ],
          [
            -1.150511,
            52.952988,
            34.75
          ],
          [
            -1.150212,
            52.953027,
            35.75
          ],
          [
            -1.149477,
            52.953128,
            36
          ],
          [
            -1.149222,
            52.95315,
            36
          ],
          [
            -1.148843,
            52.953159,
            35.5
          ],
          [
            -1.148446,
            52.953165,
            36.25
          ],
          [
            -1.148228,
            52.953166,
            36.5
          ],
          [
            -1.147629,
            52.953159,
            38
          ],
          [
            -1.1471,
            52.953155,
            39.25
          ],
          [
            -1.146821,
            52.953161,
            40.5
          ],
          [
            -1.146651,
            52.95317,
            41.5
          ],
          [
            -1.146499,
            52.953186,
            42
          ],
          [
            -1.146196,
            52.953229,
            43
          ],
          [
            -1.145678,
            52.953313,
            44.5
          ],
          [
            -1.145585,
            52.953317,
            44.75
          ],
          [
            -1.145514,
            52.953307,
            45
          ],
          [
            -1.145447,
            52.953284,
            45.25
          ],
          [
            -1.145384,
            52.953243,
            45.5
          ],
          [
            -1.145346,
            52.953196,
            45.75
          ],
          [
            -1.145343,
            52.953139,
            45.75
          ],
          [
            -1.145351,
            52.953103,
            45.75
          ],
          [
            -1.145443,
            52.952986,
            46
          ],
          [
            -1.145708,
            52.952669,
            45.5
          ],
          [
            -1.145825,
            52.952469,
            44.75
          ],
          [
            -1.145856,
            52.952409,
            44.25
          ],
          [
            -1.145893,
            52.952301,
            43.5
          ],
          [
            -1.145965,
            52.952029,
            42.25
          ],
          [
            -1.146044,
            52.951857,
            41.25
          ],
          [
            -1.146144,
            52.951676,
            39.75
          ],
          [
            -1.146234,
            52.951542,
            39
          ],
          [
            -1.146263,
            52.951498,
            38.75
          ],
          [
            -1.146288,
            52.951402,
            38.25
          ],
          [
            -1.146297,
            52.951276,
            37.75
          ],
          [
            -1.146281,
            52.950848,
            34.5
          ],
          [
            -1.146261,
            52.950726,
            34
          ],
          [
            -1.146232,
            52.950648,
            33.75
          ],
          [
            -1.146168,
            52.950546,
            33.5
          ],
          [
            -1.146095,
            52.950467,
            33.5
          ],
          [
            -1.146083,
            52.950455,
            33.5
          ],
          [
            -1.145994,
            52.950364,
            33.25
          ],
          [
            -1.145916,
            52.95026,
            33
          ],
          [
            -1.145876,
            52.950181,
            33
          ],
          [
            -1.1457,
            52.949324,
            31.5
          ],
          [
            -1.145666,
            52.949148,
            31.25
          ],
          [
            -1.145594,
            52.948934,
            30.75
          ],
          [
            -1.145579,
            52.9487,
            30.5
          ],
          [
            -1.145548,
            52.948475,
            30
          ],
          [
            -1.14553,
            52.948203,
            29.5
          ],
          [
            -1.145535,
            52.948008,
            29.25
          ],
          [
            -1.145563,
            52.947742,
            28.75
          ],
          [
            -1.145577,
            52.947611,
            28.5
          ],
          [
            -1.145644,
            52.94713,
            27.75
          ],
          [
            -1.14566,
            52.947005,
            27.5
          ],
          [
            -1.145717,
            52.946586,
            27
          ],
          [
            -1.145811,
            52.945831,
            25.75
          ],
          [
            -1.145814,
            52.945373,
            24.75
          ],
          [
            -1.145815,
            52.945347,
            25
          ],
          [
            -1.145822,
            52.945198,
            25
          ],
          [
            -1.145831,
            52.94514,
            25
          ],
          [
            -1.145862,
            52.945066,
            25
          ],
          [
            -1.145899,
            52.945011,
            25
          ],
          [
            -1.145953,
            52.944953,
            25
          ],
          [
            -1.146029,
            52.944896,
            25
          ],
          [
            -1.146086,
            52.944864,
            25
          ],
          [
            -1.146182,
            52.944825,
            25
          ],
          [
            -1.146259,
            52.9448,
            25
          ],
          [
            -1.146327,
            52.944784,
            25
          ],
          [
            -1.146373,
            52.944775,
            25
          ],
          [
            -1.146412,
            52.944769,
            25
          ],
          [
            -1.146459,
            52.944763,
            25
          ],
          [
            -1.146521,
            52.944756,
            25
          ],
          [
            -1.146918,
            52.944723,
            25
          ],
          [
            -1.147136,
            52.944706,
            25
          ],
          [
            -1.147392,
            52.944686,
            25
          ],
          [
            -1.147536,
            52.944675,
            25
          ],
          [
            -1.147582,
            52.944673,
            25
          ],
          [
            -1.147691,
            52.944671,
            25
          ],
          [
            -1.147768,
            52.944671,
            25
          ],
          [
            -1.147904,
            52.944677,
            25
          ],
          [
            -1.147978,
            52.944683,
            25
          ],
          [
            -1.148068,
            52.944691,
            25
          ],
          [
            -1.148078,
            52.944691,
            25
          ],
          [
            -1.148151,
            52.944699,
            25.25
          ],
          [
            -1.148245,
            52.944709,
            25.5
          ],
          [
            -1.148325,
            52.944715,
            25.75
          ],
          [
            -1.148365,
            52.944716,
            25.75
          ],
          [
            -1.148554,
            52.944716,
            25.75
          ],
          [
            -1.148706,
            52.944693,
            25.75
          ],
          [
            -1.148915,
            52.944716,
            25.75
          ],
          [
            -1.149187,
            52.944768,
            26
          ],
          [
            -1.149263,
            52.944786,
            26
          ],
          [
            -1.14973,
            52.944898,
            25.5
          ],
          [
            -1.149916,
            52.944938,
            25.75
          ],
          [
            -1.150156,
            52.944975,
            25.25
          ],
          [
            -1.15087,
            52.945036,
            25
          ],
          [
            -1.151096,
            52.945054,
            25
          ],
          [
            -1.151472,
            52.945082,
            25.5
          ],
          [
            -1.151875,
            52.945108,
            26
          ],
          [
            -1.152138,
            52.945101,
            26.25
          ],
          [
            -1.152266,
            52.945086,
            26.25
          ],
          [
            -1.152455,
            52.945048,
            26
          ],
          [
            -1.152629,
            52.944992,
            26
          ],
          [
            -1.152743,
            52.944944,
            25.75
          ],
          [
            -1.152894,
            52.944857,
            26
          ],
          [
            -1.153018,
            52.944757,
            26
          ],
          [
            -1.153116,
            52.944644,
            25.5
          ],
          [
            -1.153198,
            52.944499,
            25
          ],
          [
            -1.153225,
            52.944447,
            25
          ],
          [
            -1.153309,
            52.944282,
            25.5
          ],
          [
            -1.153387,
            52.944165,
            25.75
          ],
          [
            -1.153447,
            52.944096,
            25.5
          ],
          [
            -1.15356,
            52.944003,
            25.5
          ],
          [
            -1.153647,
            52.943949,
            25.5
          ],
          [
            -1.153805,
            52.943874,
            25.25
          ],
          [
            -1.153984,
            52.943816,
            25
          ],
          [
            -1.154149,
            52.943781,
            25
          ],
          [
            -1.154279,
            52.943759,
            25
          ],
          [
            -1.155345,
            52.943587,
            25
          ],
          [
            -1.155697,
            52.943524,
            25
          ],
          [
            -1.155796,
            52.943506,
            25
          ],
          [
            -1.155931,
            52.943484,
            25
          ],
          [
            -1.156022,
            52.943469,
            25.25
          ],
          [
            -1.156326,
            52.943421,
            25.25
          ],
          [
            -1.156858,
            52.943336,
            25
          ],
          [
            -1.157051,
            52.943307,
            25
          ],
          [
            -1.157455,
            52.943238,
            25
          ],
          [
            -1.157619,
            52.94321,
            25.25
          ],
          [
            -1.157814,
            52.943174,
            26
          ],
          [
            -1.158352,
            52.943073,
            26
          ],
          [
            -1.158481,
            52.943044,
            26
          ],
          [
            -1.158629,
            52.943009,
            26
          ],
          [
            -1.158897,
            52.942919,
            26
          ],
          [
            -1.159065,
            52.942847,
            26
          ],
          [
            -1.159248,
            52.942751,
            26
          ],
          [
            -1.159348,
            52.942688,
            26
          ],
          [
            -1.159519,
            52.942559,
            25.75
          ],
          [
            -1.15959,
            52.942493,
            25.75
          ],
          [
            -1.159627,
            52.942454,
            25.75
          ],
          [
            -1.15974,
            52.942323,
            25.75
          ],
          [
            -1.159795,
            52.942238,
            25.75
          ],
          [
            -1.159851,
            52.942124,
            25.75
          ],
          [
            -1.159939,
            52.941877,
            25
          ],
          [
            -1.159983,
            52.941804,
            25
          ],
          [
            -1.160032,
            52.941756,
            25
          ],
          [
            -1.16014,
            52.941701,
            25
          ],
          [
            -1.160252,
            52.941671,
            25
          ],
          [
            -1.160344,
            52.941664,
            25
          ],
          [
            -1.160489,
            52.941666,
            25
          ],
          [
            -1.160816,
            52.941682,
            25
          ],
          [
            -1.160975,
            52.941689,
            25
          ],
          [
            -1.162059,
            52.941739,
            26.25
          ],
          [
            -1.162765,
            52.941772,
            26
          ],
          [
            -1.162831,
            52.941775,
            26
          ],
          [
            -1.163207,
            52.941793,
            26
          ],
          [
            -1.163414,
            52.941802,
            26
          ],
          [
            -1.163511,
            52.941807,
            26
          ],
          [
            -1.163728,
            52.941814,
            26
          ],
          [
            -1.16519,
            52.941825,
            26
          ],
          [
            -1.165746,
            52.941828,
            26
          ],
          [
            -1.165918,
            52.941829,
            26
          ],
          [
            -1.166083,
            52.941827,
            26
          ],
          [
            -1.166234,
            52.941817,
            26
          ],
          [
            -1.166396,
            52.941797,
            26
          ],
          [
            -1.166613,
            52.941756,
            26
          ],
          [
            -1.166742,
            52.941723,
            26
          ],
          [
            -1.168255,
            52.941225,
            25.5
          ],
          [
            -1.168484,
            52.941151,
            25.75
          ],
          [
            -1.168711,
            52.941089,
            26
          ],
          [
            -1.168837,
            52.941063,
            26
          ],
          [
            -1.169062,
            52.941026,
            26.5
          ],
          [
            -1.169323,
            52.941001,
            26.75
          ],
          [
            -1.169424,
            52.940998,
            26.5
          ],
          [
            -1.169789,
            52.941001,
            26.5
          ],
          [
            -1.170666,
            52.941041,
            26
          ],
          [
            -1.170971,
            52.941075,
            26
          ],
          [
            -1.171228,
            52.941121,
            26.25
          ],
          [
            -1.171531,
            52.941196,
            26.75
          ],
          [
            -1.171807,
            52.941286,
            27.25
          ],
          [
            -1.172564,
            52.941557,
            27.25
          ],
          [
            -1.172904,
            52.941693,
            27.25
          ],
          [
            -1.173031,
            52.941748,
            26.75
          ],
          [
            -1.173324,
            52.941876,
            26
          ],
          [
            -1.173528,
            52.941973,
            26
          ],
          [
            -1.173694,
            52.942065,
            25.75
          ],
          [
            -1.173705,
            52.942072,
            26
          ],
          [
            -1.174071,
            52.942281,
            26
          ],
          [
            -1.174353,
            52.942473,
            26
          ],
          [
            -1.174495,
            52.942588,
            25.75
          ],
          [
            -1.174626,
            52.942707,
            26
          ],
          [
            -1.174964,
            52.943067,
            26
          ],
          [
            -1.175244,
            52.943353,
            26.75
          ],
          [
            -1.175357,
            52.943441,
            26.25
          ],
          [
            -1.175443,
            52.943497,
            25.75
          ],
          [
            -1.175595,
            52.943583,
            26
          ],
          [
            -1.175801,
            52.943673,
            26.5
          ],
          [
            -1.175977,
            52.943734,
            26.25
          ],
          [
            -1.176147,
            52.943778,
            26.5
          ],
          [
            -1.176234,
            52.943794,
            26.25
          ],
          [
            -1.176589,
            52.943837,
            26
          ],
          [
            -1.176758,
            52.943851,
            25.5
          ],
          [
            -1.177188,
            52.943862,
            25
          ],
          [
            -1.17735,
            52.943868,
            25
          ],
          [
            -1.177613,
            52.943868,
            25
          ],
          [
            -1.177646,
            52.943869,
            25
          ],
          [
            -1.178142,
            52.943892,
            25
          ],
          [
            -1.178329,
            52.943914,
            25
          ],
          [
            -1.178461,
            52.943943,
            25
          ],
          [
            -1.178591,
            52.943982,
            25
          ],
          [
            -1.17894,
            52.944108,
            26
          ],
          [
            -1.179138,
            52.944171,
            25.75
          ],
          [
            -1.179219,
            52.944189,
            25.75
          ],
          [
            -1.179283,
            52.944199,
            25.5
          ],
          [
            -1.179336,
            52.944202,
            25.25
          ],
          [
            -1.179456,
            52.944192,
            25
          ],
          [
            -1.17956,
            52.944164,
            25.25
          ],
          [
            -1.17967,
            52.944104,
            25.75
          ],
          [
            -1.179863,
            52.943925,
            25.75
          ],
          [
            -1.179971,
            52.943798,
            26
          ],
          [
            -1.180024,
            52.943685,
            26
          ],
          [
            -1.180066,
            52.943558,
            26
          ],
          [
            -1.180103,
            52.943496,
            26
          ],
          [
            -1.180187,
            52.943426,
            26
          ],
          [
            -1.180277,
            52.943382,
            26
          ],
          [
            -1.180363,
            52.94336,
            26
          ],
          [
            -1.180467,
            52.943348,
            26
          ],
          [
            -1.181585,
            52.943327,
            26
          ],
          [
            -1.181883,
            52.94332,
            26
          ],
          [
            -1.182081,
            52.943307,
            26
          ],
          [
            -1.182283,
            52.943278,
            26
          ],
          [
            -1.182562,
            52.943209,
            26
          ],
          [
            -1.182751,
            52.943138,
            26
          ],
          [
            -1.182893,
            52.94307,
            26
          ],
          [
            -1.183051,
            52.942973,
            26
          ],
          [
            -1.183312,
            52.942791,
            26
          ],
          [
            -1.183431,
            52.942706,
            26
          ],
          [
            -1.183841,
            52.942421,
            26
          ],
          [
            -1.18388,
            52.942394,
            26
          ],
          [
            -1.184134,
            52.942217,
            26
          ],
          [
            -1.184969,
            52.941601,
            26
          ],
          [
            -1.185536,
            52.941182,
            26
          ],
          [
            -1.186022,
            52.940828,
            26
          ],
          [
            -1.186229,
            52.940699,
            26
          ],
          [
            -1.186441,
            52.940587,
            26
          ],
          [
            -1.187199,
            52.940211,
            26
          ],
          [
            -1.187774,
            52.939926,
            26
          ],
          [
            -1.187945,
            52.939839,
            26
          ],
          [
            -1.188063,
            52.939759,
            26
          ],
          [
            -1.18813,
            52.939683,
            26
          ],
          [
            -1.188164,
            52.939599,
            26
          ],
          [
            -1.188163,
            52.939513,
            26
          ],
          [
            -1.188127,
            52.939429,
            26
          ],
          [
            -1.188061,
            52.939351,
            26
          ],
          [
            -1.187945,
            52.939241,
            26
          ],
          [
            -1.187112,
            52.938454,
            26
          ],
          [
            -1.187032,
            52.938357,
            26
          ],
          [
            -1.186999,
            52.938289,
            26
          ],
          [
            -1.186985,
            52.938234,
            26
          ],
          [
            -1.186985,
            52.938145,
            26
          ],
          [
            -1.187006,
            52.938073,
            26
          ],
          [
            -1.187043,
            52.938006,
            26
          ],
          [
            -1.18708,
            52.937959,
            26
          ],
          [
            -1.18711,
            52.937929,
            26
          ],
          [
            -1.187238,
            52.93783,
            26
          ],
          [
            -1.187325,
            52.937773,
            26
          ],
          [
            -1.18747,
            52.937677,
            26
          ],
          [
            -1.187709,
            52.937521,
            25.75
          ],
          [
            -1.187996,
            52.937377,
            26
          ],
          [
            -1.188331,
            52.937221,
            26
          ],
          [
            -1.188565,
            52.937113,
            26
          ],
          [
            -1.188773,
            52.937008,
            26
          ],
          [
            -1.188839,
            52.936962,
            26
          ],
          [
            -1.188881,
            52.936922,
            25.75
          ],
          [
            -1.188941,
            52.936852,
            26
          ],
          [
            -1.188984,
            52.936742,
            26
          ],
          [
            -1.189034,
            52.936638,
            25.75
          ],
          [
            -1.189068,
            52.936587,
            25.5
          ],
          [
            -1.18916,
            52.936499,
            25.25
          ],
          [
            -1.189278,
            52.936427,
            25.25
          ],
          [
            -1.189635,
            52.936252,
            26
          ],
          [
            -1.189718,
            52.936211,
            26
          ],
          [
            -1.189789,
            52.936175,
            26
          ],
          [
            -1.18986,
            52.936141,
            26
          ],
          [
            -1.190141,
            52.936006,
            25.5
          ],
          [
            -1.191317,
            52.935468,
            26
          ],
          [
            -1.191337,
            52.935459,
            26
          ],
          [
            -1.191491,
            52.935391,
            26
          ],
          [
            -1.193037,
            52.934729,
            26.75
          ],
          [
            -1.193081,
            52.934711,
            26.75
          ],
          [
            -1.193135,
            52.93469,
            26.75
          ],
          [
            -1.193221,
            52.934658,
            26.75
          ],
          [
            -1.193333,
            52.934619,
            26.5
          ],
          [
            -1.193506,
            52.934566,
            26.25
          ],
          [
            -1.195219,
            52.934067,
            26.5
          ],
          [
            -1.195451,
            52.933996,
            26.25
          ],
          [
            -1.195651,
            52.933922,
            26
          ],
          [
            -1.196451,
            52.933583,
            26
          ],
          [
            -1.196739,
            52.933476,
            26
          ],
          [
            -1.199955,
            52.932472,
            26.75
          ],
          [
            -1.200105,
            52.932425,
            27
          ],
          [
            -1.200355,
            52.932347,
            27
          ],
          [
            -1.200583,
            52.932286,
            27
          ],
          [
            -1.20082,
            52.932237,
            27
          ],
          [
            -1.201111,
            52.932196,
            26.75
          ],
          [
            -1.201308,
            52.932179,
            26.75
          ],
          [
            -1.201557,
            52.932169,
            26.75
          ],
          [
            -1.20181,
            52.932171,
            26.75
          ],
          [
            -1.202413,
            52.932182,
            26.75
          ],
          [
            -1.202553,
            52.932181,
            26.75
          ],
          [
            -1.202655,
            52.932182,
            26.75
          ],
          [
            -1.202919,
            52.932185,
            27
          ],
          [
            -1.203079,
            52.932175,
            27
          ],
          [
            -1.20318,
            52.932153,
            27
          ],
          [
            -1.203271,
            52.932119,
            27
          ],
          [
            -1.203416,
            52.932032,
            27
          ],
          [
            -1.203708,
            52.931809,
            26.5
          ],
          [
            -1.204603,
            52.931065,
            26
          ],
          [
            -1.204823,
            52.930844,
            26
          ],
          [
            -1.205116,
            52.930502,
            26
          ],
          [
            -1.205367,
            52.930225,
            26
          ],
          [
            -1.205507,
            52.930096,
            26
          ],
          [
            -1.20564,
            52.929988,
            26
          ],
          [
            -1.205675,
            52.929961,
            26
          ],
          [
            -1.206865,
            52.929058,
            26.5
          ],
          [
            -1.207521,
            52.92856,
            27
          ],
          [
            -1.207573,
            52.928522,
            27
          ],
          [
            -1.207669,
            52.928449,
            27
          ],
          [
            -1.207734,
            52.928398,
            27
          ],
          [
            -1.207792,
            52.928363,
            27
          ],
          [
            -1.208023,
            52.92823,
            26.5
          ],
          [
            -1.208114,
            52.928179,
            26.5
          ],
          [
            -1.208268,
            52.928093,
            26.75
          ],
          [
            -1.208321,
            52.928069,
            27
          ],
          [
            -1.208336,
            52.928062,
            27
          ],
          [
            -1.20837,
            52.928046,
            27
          ],
          [
            -1.20838,
            52.928041,
            27
          ],
          [
            -1.208478,
            52.927997,
            27.25
          ],
          [
            -1.208502,
            52.92799,
            27.25
          ],
          [
            -1.20871,
            52.927924,
            27.5
          ],
          [
            -1.209043,
            52.92783,
            28
          ],
          [
            -1.209516,
            52.927707,
            28
          ],
          [
            -1.209794,
            52.927633,
            28.5
          ],
          [
            -1.209898,
            52.927597,
            28.75
          ],
          [
            -1.210121,
            52.927496,
            28.75
          ],
          [
            -1.210326,
            52.927366,
            29
          ],
          [
            -1.210696,
            52.927143,
            29.5
          ],
          [
            -1.210943,
            52.926973,
            30
          ],
          [
            -1.211091,
            52.926858,
            29.5
          ],
          [
            -1.211548,
            52.92648,
            29
          ],
          [
            -1.21215,
            52.925969,
            29
          ],
          [
            -1.212443,
            52.92574,
            29.25
          ],
          [
            -1.212518,
            52.925686,
            29.5
          ],
          [
            -1.212707,
            52.925548,
            29.75
          ],
          [
            -1.212927,
            52.925371,
            29.25
          ],
          [
            -1.21293,
            52.925368,
            29.25
          ],
          [
            -1.212982,
            52.925323,
            29
          ],
          [
            -1.213174,
            52.925163,
            29.5
          ],
          [
            -1.213243,
            52.925114,
            29.75
          ],
          [
            -1.213443,
            52.924984,
            30
          ],
          [
            -1.21371,
            52.924819,
            30.75
          ],
          [
            -1.213818,
            52.924779,
            30.75
          ],
          [
            -1.213899,
            52.924765,
            31
          ],
          [
            -1.214027,
            52.924763,
            31
          ],
          [
            -1.214148,
            52.924785,
            31
          ],
          [
            -1.21424,
            52.924822,
            31
          ],
          [
            -1.214317,
            52.924869,
            31.25
          ],
          [
            -1.214697,
            52.925139,
            31.5
          ],
          [
            -1.214703,
            52.925143,
            32.25
          ]
        ]
      }
    }
  ]
}