{
  "type": "FeatureCollection",
  "features": [
    {
      "type": "Feature",
      "properties": {
        "creator": "BRouter-1.7.10",
        "name": "SouthClifton-OldMarketSquare",
        "track-length": "8734",
        "filtered ascend": "20",
        "plain-ascend": "-25",
        "total-time": "699",
        "total-energy": "364095",
        "cost": "17468",
        "messages": [
          [
            "Longitude",
            "Latitude",
            "Elevation",
            "Distance",
            "CostPerKm",
            "ElevCost",
            "TurnCost",
            "NodeCost",
            "InitialCost",
            "WayTags",
            "NodeTags",
            "Time",
            "Energy"
          ],
          [
            "-1193206",
            "52896396",
            "62",
            "1",
            "2000",
            "0",
            "0",
            "0",
            "0",
            "railway=tram",
            "railway=tram_stop",
            "0",
            "43"
          ],
          [
            "-1192915",
            "52896540",
            "62",
            "25",
            "2000",
            "0",
            "0",
            "0",
            "0",
            "railway=tram",
            "railway=level_crossing",
            "2",
            "1143"
          ],
          [
            "-1192617",
            "52896687",
            "62",
            "26",
            "2000",
            "0",
            "0",
            "0",
            "0",
            "railway=tram",
            "railway=tram_stop",
            "4",
            "2287"
          ],
          [
            "-1191722",
            "52897091",
            "61",
            "74",
            "2000",
            "0",
            "0",
            "0",
            "0",
            "railway=tram",
            "",
            "10",
            "5205"
          ],
          [
            "-1188111",
            "52896974",
            "56",
            "252",
            "2000",
            "0",
            "0",
            "0",
            "0",
            "reversedirection=yes railway=tram",
            "railway=tram_stop",
            "30",
            "14288"
          ],
          [
            "-1185702",
            "52896825",
            "52",
            "163",
            "2000",
            "0",
            "0",
            "0",
            "0",
            "reversedirection=yes railway=tram",
            "railway=unknown",
            "43",
            "19264"
          ],
          [
            "-1182546",
            "52896805",
            "46",
            "213",
            "2000",
            "0",
            "0",
            "0",
            "0",
            "reversedirection=yes railway=tram",
            "railway=unknown",
            "60",
            "22512"
          ],
          [
            "-1182318",
            "52896803",
            "45",
            "15",
            "2000",
            "0",
            "0",
            "0",
            "0",
            "reversedirection=yes railway=tram",
            "railway=unknown",
            "61",
            "22934"
          ],
          [
            "-1181555",
            "52896882",
            "42",
            "54",
            "2000",
            "0",
            "0",
            "0",
            "0",
            "reversedirection=yes railway=tram",
            "",
            "65",
            "24005"
          ],
          [
            "-1181532",
            "52896892",
            "42",
            "2",
            "2000",
            "0",
            "0",
            "0",
            "0",
            "railway=tram",
            "railway=unknown",
            "66",
            "24046"
          ],
          [
            "-1181353",
            "52896972",
            "41",
            "15",
            "2000",
            "0",
            "0",
            "0",
            "0",
            "railway=tram",
            "railway=tram_stop",
            "67",
            "24289"
          ],
          [
            "-1180878",
            "52897185",
            "39",
            "40",
            "2000",
            "0",
            "0",
            "0",
            "0",
            "railway=tram",
            "railway=unknown",
            "70",
            "24473"
          ],
          [
            "-1180657",
            "52897341",
            "38",
            "22",
            "2000",
            "0",
            "0",
            "0",
            "0",
            "railway=tram",
            "railway=unknown",
            "72",
            "24713"
          ],
          [
            "-1180633",
            "52897385",
            "38",
            "5",
            "2000",
            "0",
            "0",
            "0",
            "0",
            "railway=tram",
            "railway=unknown",
            "72",
            "24780"
          ],
          [
            "-1180617",
            "52897517",
            "38",
            "14",
            "2000",
            "0",
            "0",
            "0",
            "0",
            "railway=tram",
            "railway=unknown",
            "73",
            "24960"
          ],
          [
            "-1178041",
            "52902183",
            "41",
            "554",
            "2000",
            "0",
            "0",
            "0",
            "0",
            "railway=tram",
            "",
            "118",
            "46306"
          ],
          [
            "-1177216",
            "52903284",
            "41",
            "134",
            "2000",
            "0",
            "0",
            "0",
            "0",
            "reversedirection=yes railway=tram",
            "railway=switch",
            "128",
            "52686"
          ],
          [
            "-1176979",
            "52903606",
            "42",
            "39",
            "2000",
            "0",
            "0",
            "0",
            "0",
            "reversedirection=yes railway=tram",
            "railway=tram_stop",
            "131",
            "54539"
          ],
          [
            "-1176678",
            "52904020",
            "41",
            "50",
            "2000",
            "0",
            "0",
            "0",
            "0",
            "reversedirection=yes railway=tram",
            "",
            "135",
            "56679"
          ],
          [
            "-1174824",
            "52906761",
            "38",
            "329",
            "2000",
            "0",
            "0",
            "0",
            "0",
            "railway=tram",
            "railway=tram_stop",
            "162",
            "68269"
          ],
          [
            "-1170513",
            "52910680",
            "32",
            "536",
            "2000",
            "0",
            "0",
            "0",
            "0",
            "railway=tram",
            "railway=tram_stop",
            "205",
            "91433"
          ],
          [
            "-1169419",
            "52911023",
            "29",
            "84",
            "2000",
            "0",
            "0",
            "0",
            "0",
            "railway=tram",
            "highway=crossing crossing=traffic_signals",
            "211",
            "92923"
          ],
          [
            "-1169075",
            "52910853",
            "29",
            "31",
            "2000",
            "0",
            "0",
            "0",
            "0",
            "railway=tram",
            "",
            "214",
            "93624"
          ],
          [
            "-1168456",
            "52910483",
            "31",
            "62",
            "2000",
            "0",
            "0",
            "0",
            "0",
            "reversedirection=yes railway=tram",
            "railway=unknown",
            "219",
            "95889"
          ],
          [
            "-1166988",
            "52910803",
            "29",
            "105",
            "2000",
            "0",
            "0",
            "0",
            "0",
            "reversedirection=yes railway=tram",
            "railway=unknown",
            "227",
            "98233"
          ],
          [
            "-1165207",
            "52910934",
            "27",
            "121",
            "2000",
            "0",
            "0",
            "0",
            "0",
            "reversedirection=yes railway=tram",
            "",
            "237",
            "101677"
          ],
          [
            "-1161578",
            "52911595",
            "29",
            "256",
            "2000",
            "0",
            "0",
            "0",
            "0",
            "railway=tram",
            "railway=crossing",
            "257",
            "112784"
          ],
          [
            "-1158352",
            "52914210",
            "30",
            "419",
            "2000",
            "0",
            "0",
            "0",
            "0",
            "railway=tram",
            "railway=unknown",
            "291",
            "131751"
          ],
          [
            "-1158341",
            "52914300",
            "30",
            "10",
            "2000",
            "0",
            "0",
            "0",
            "0",
            "railway=tram",
            "railway=unknown",
            "292",
            "132226"
          ],
          [
            "-1158323",
            "52914444",
            "30",
            "16",
            "2000",
            "0",
            "0",
            "0",
            "0",
            "railway=tram",
            "railway=unknown",
            "293",
            "132946"
          ],
          [
            "-1158296",
            "52914669",
            "29",
            "25",
            "2000",
            "0",
            "0",
            "0",
            "0",
            "railway=tram",
            "railway=tram_stop",
            "295",
            "133920"
          ],
          [
            "-1158260",
            "52914959",
            "29",
            "32",
            "2000",
            "0",
            "0",
            "0",
            "0",
            "railway=tram",
            "railway=unknown",
            "297",
            "135146"
          ],
          [
            "-1157525",
            "52918822",
            "25",
            "433",
            "2000",
            "0",
            "0",
            "0",
            "0",
            "railway=tram",
            "railway=unknown",
            "332",
            "153491"
          ],
          [
            "-1157514",
            "52918891",
            "25",
            "8",
            "2000",
            "0",
            "0",
            "0",
            "0",
            "railway=tram",
            "railway=tram_stop",
            "333",
            "153843"
          ],
          [
            "-1157428",
            "52919350",
            "25",
            "51",
            "2000",
            "0",
            "0",
            "0",
            "0",
            "railway=tram",
            "railway=unknown",
            "337",
            "155909"
          ],
          [
            "-1156248",
            "52925299",
            "23",
            "666",
            "2000",
            "0",
            "0",
            "0",
            "0",
            "railway=tram",
            "railway=switch",
            "390",
            "182964"
          ],
          [
            "-1156185",
            "52925617",
            "23",
            "36",
            "2000",
            "0",
            "0",
            "0",
            "0",
            "railway=tram",
            "railway=unknown",
            "393",
            "184543"
          ],
          [
            "-1156176",
            "52925661",
            "22",
            "4",
            "2000",
            "0",
            "0",
            "0",
            "0",
            "railway=tram",
            "railway=unknown",
            "393",
            "184712"
          ],
          [
            "-1156167",
            "52925708",
            "23",
            "6",
            "2000",
            "0",
            "0",
            "0",
            "0",
            "railway=tram",
            "railway=unknown",
            "394",
            "184976"
          ],
          [
            "-1156153",
            "52925782",
            "23",
            "8",
            "2000",
            "0",
            "0",
            "0",
            "0",
            "railway=tram",
            "railway=tram_stop",
            "394",
            "185328"
          ],
          [
            "-1156074",
            "52926192",
            "23",
            "46",
            "2000",
            "0",
            "0",
            "0",
            "0",
            "railway=tram",
            "railway=unknown",
            "398",
            "187351"
          ],
          [
            "-1154841",
            "52930260",
            "22",
            "461",
            "2000",
            "0",
            "0",
            "0",
            "0",
            "railway=tram",
            "railway=unknown",
            "435",
            "204971"
          ],
          [
            "-1154688",
            "52930734",
            "22",
            "54",
            "2000",
            "0",
            "0",
            "0",
            "0",
            "railway=tram",
            "railway=switch",
            "439",
            "206981"
          ],
          [
            "-1154044",
            "52932449",
            "23",
            "195",
            "2000",
            "0",
            "0",
            "0",
            "0",
            "railway=tram",
            "railway=unknown",
            "455",
            "216174"
          ],
          [
            "-1153426",
            "52933895",
            "24",
            "166",
            "2000",
            "0",
            "0",
            "0",
            "0",
            "railway=tram",
            "railway=unknown",
            "468",
            "223969"
          ],
          [
            "-1155962",
            "52935401",
            "26",
            "256",
            "2000",
            "0",
            "0",
            "0",
            "0",
            "railway=tram",
            "railway=unknown",
            "489",
            "236463"
          ],
          [
            "-1155850",
            "52935509",
            "26",
            "14",
            "2000",
            "0",
            "0",
            "0",
            "0",
            "railway=tram",
            "railway=unknown",
            "490",
            "237167"
          ],
          [
            "-1155737",
            "52935620",
            "25",
            "15",
            "2000",
            "0",
            "0",
            "0",
            "0",
            "railway=tram",
            "railway=tram_stop",
            "491",
            "237847"
          ],
          [
            "-1155407",
            "52935942",
            "25",
            "42",
            "2000",
            "0",
            "0",
            "0",
            "0",
            "railway=tram",
            "railway=unknown",
            "494",
            "239663"
          ],
          [
            "-1154170",
            "52938462",
            "25",
            "295",
            "2000",
            "0",
            "0",
            "0",
            "0",
            "railway=tram",
            "railway=unknown",
            "518",
            "252508"
          ],
          [
            "-1154136",
            "52938525",
            "26",
            "7",
            "2000",
            "0",
            "0",
            "0",
            "0",
            "railway=tram",
            "railway=unknown",
            "518",
            "252865"
          ],
          [
            "-1154102",
            "52938586",
            "26",
            "7",
            "2000",
            "0",
            "0",
            "0",
            "0",
            "railway=tram",
            "railway=unknown",
            "519",
            "253219"
          ],
          [
            "-1154066",
            "52938631",
            "25",
            "6",
            "2000",
            "0",
            "0",
            "0",
            "0",
            "railway=tram",
            "railway=unknown",
            "519",
            "253507"
          ],
          [
            "-1153863",
            "52938856",
            "25",
            "28",
            "2000",
            "0",
            "0",
            "0",
            "0",
            "railway=tram",
            "railway=unknown",
            "522",
            "254711"
          ],
          [
            "-1153777",
            "52938952",
            "25",
            "12",
            "2000",
            "0",
            "0",
            "0",
            "0",
            "railway=tram",
            "railway=tram_stop",
            "523",
            "255212"
          ],
          [
            "-1153429",
            "52939291",
            "25",
            "44",
            "2000",
            "0",
            "0",
            "0",
            "0",
            "railway=tram",
            "railway=unknown",
            "526",
            "257227"
          ],
          [
            "-1153274",
            "52939444",
            "25",
            "20",
            "2000",
            "0",
            "0",
            "0",
            "0",
            "railway=tram",
            "railway=unknown",
            "528",
            "258053"
          ],
          [
            "-1152685",
            "52940109",
            "25",
            "84",
            "2000",
            "0",
            "0",
            "0",
            "0",
            "railway=tram",
            "railway=unknown",
            "535",
            "261635"
          ],
          [
            "-1152242",
            "52940613",
            "25",
            "64",
            "2000",
            "0",
            "0",
            "0",
            "0",
            "railway=tram",
            "railway=unknown",
            "540",
            "264389"
          ],
          [
            "-1151602",
            "52941343",
            "25",
            "92",
            "2000",
            "0",
            "0",
            "0",
            "0",
            "railway=tram",
            "railway=unknown",
            "547",
            "268527"
          ],
          [
            "-1151233",
            "52941762",
            "26",
            "53",
            "2000",
            "0",
            "0",
            "0",
            "0",
            "railway=tram",
            "railway=unknown",
            "551",
            "271130"
          ],
          [
            "-1150500",
            "52942600",
            "25",
            "105",
            "2000",
            "0",
            "0",
            "0",
            "0",
            "railway=tram",
            "railway=tram_stop",
            "560",
            "275468"
          ],
          [
            "-1150114",
            "52943041",
            "25",
            "56",
            "2000",
            "0",
            "0",
            "0",
            "0",
            "railway=tram",
            "railway=unknown",
            "564",
            "277866"
          ],
          [
            "-1149954",
            "52943223",
            "25",
            "23",
            "2000",
            "0",
            "0",
            "0",
            "0",
            "railway=tram",
            "railway=unknown",
            "566",
            "278860"
          ],
          [
            "-1149946",
            "52943232",
            "25",
            "1",
            "2000",
            "0",
            "0",
            "0",
            "0",
            "railway=tram",
            "railway=switch",
            "566",
            "278904"
          ],
          [
            "-1149787",
            "52943480",
            "24",
            "29",
            "2000",
            "0",
            "0",
            "0",
            "0",
            "railway=tram",
            "railway=switch",
            "568",
            "280117"
          ],
          [
            "-1149196",
            "52944159",
            "25",
            "85",
            "2000",
            "0",
            "0",
            "0",
            "0",
            "railway=tram",
            "railway=unknown",
            "575",
            "284216"
          ],
          [
            "-1148929",
            "52944579",
            "25",
            "50",
            "2000",
            "0",
            "0",
            "0",
            "0",
            "railway=tram",
            "crossing=uncontrolled railway=unknown",
            "579",
            "286466"
          ],
          [
            "-1148789",
            "52944666",
            "25",
            "14",
            "2000",
            "0",
            "0",
            "0",
            "0",
            "railway=tram",
            "railway=unknown",
            "580",
            "287114"
          ],
          [
            "-1148706",
            "52944693",
            "25",
            "6",
            "2000",
            "0",
            "0",
            "0",
            "0",
            "railway=tram",
            "railway=unknown",
            "581",
            "287390"
          ],
          [
            "-1148245",
            "52944709",
            "25",
            "32",
            "2000",
            "0",
            "0",
            "0",
            "0",
            "railway=tram",
            "railway=switch",
            "583",
            "288842"
          ],
          [
            "-1146259",
            "52944800",
            "25",
            "134",
            "2000",
            "0",
            "0",
            "0",
            "0",
            "reversedirection=yes railway=tram",
            "highway=traffic_signals traffic_signals:direction=forward",
            "594",
            "294366"
          ],
          [
            "-1146086",
            "52944864",
            "25",
            "14",
            "2000",
            "0",
            "0",
            "0",
            "0",
            "reversedirection=yes railway=tram",
            "railway=unknown",
            "595",
            "294965"
          ],
          [
            "-1145953",
            "52944953",
            "25",
            "13",
            "2000",
            "0",
            "0",
            "0",
            "0",
            "reversedirection=yes railway=tram",
            "railway=unknown",
            "596",
            "295522"
          ],
          [
            "-1145815",
            "52945347",
            "25",
            "45",
            "2000",
            "0",
            "0",
            "0",
            "0",
            "reversedirection=yes railway=tram",
            "railway=unknown",
            "600",
            "297464"
          ],
          [
            "-1145814",
            "52945373",
            "25",
            "3",
            "2000",
            "0",
            "0",
            "0",
            "0",
            "reversedirection=yes railway=tram",
            "",
            "600",
            "297594"
          ],
          [
            "-1145717",
            "52946586",
            "27",
            "135",
            "2000",
            "0",
            "0",
            "0",
            "0",
            "railway=tram",
            "crossing=uncontrolled railway=unknown",
            "611",
            "303484"
          ],
          [
            "-1145660",
            "52947005",
            "27",
            "47",
            "2000",
            "0",
            "0",
            "0",
            "0",
            "railway=tram",
            "railway=tram_stop",
            "615",
            "305545"
          ],
          [
            "-1145644",
            "52947130",
            "27",
            "14",
            "2000",
            "0",
            "0",
            "0",
            "0",
            "railway=tram",
            "crossing=uncontrolled railway=unknown",
            "616",
            "306160"
          ],
          [
            "-1145577",
            "52947611",
            "28",
            "54",
            "2000",
            "0",
            "0",
            "0",
            "0",
            "railway=tram",
            "crossing=uncontrolled railway=unknown",
            "620",
            "308531"
          ],
          [
            "-1145579",
            "52948700",
            "30",
            "122",
            "2000",
            "0",
            "0",
            "0",
            "0",
            "railway=tram",
            "railway=switch",
            "630",
            "313893"
          ],
          [
            "-1145666",
            "52949148",
            "31",
            "50",
            "2000",
            "0",
            "0",
            "0",
            "0",
            "railway=tram",
            "railway=switch",
            "634",
            "316092"
          ],
          [
            "-1146083",
            "52950455",
            "33",
            "150",
            "2000",
            "0",
            "0",
            "0",
            "0",
            "railway=tram",
            "highway=crossing crossing=uncontrolled",
            "646",
            "322689"
          ],
          [
            "-1146095",
            "52950467",
            "33",
            "2",
            "2000",
            "0",
            "0",
            "0",
            "0",
            "railway=tram",
            "crossing=uncontrolled railway=unknown",
            "646",
            "322777"
          ],
          [
            "-1146232",
            "52950648",
            "34",
            "22",
            "2000",
            "0",
            "0",
            "0",
            "0",
            "railway=tram",
            "crossing=traffic_signals railway=unknown",
            "648",
            "324319"
          ],
          [
            "-1146261",
            "52950726",
            "34",
            "9",
            "2000",
            "0",
            "0",
            "0",
            "0",
            "railway=tram",
            "railway=unknown",
            "648",
            "325121"
          ],
          [
            "-1146263",
            "52951498",
            "38",
            "87",
            "2000",
            "0",
            "0",
            "0",
            "0",
            "railway=tram",
            "railway=unknown",
            "655",
            "333343"
          ],
          [
            "-1146234",
            "52951542",
            "39",
            "5",
            "2000",
            "0",
            "0",
            "0",
            "0",
            "railway=tram",
            "railway=unknown",
            "656",
            "333774"
          ],
          [
            "-1146044",
            "52951857",
            "41",
            "37",
            "2000",
            "0",
            "0",
            "0",
            "0",
            "railway=tram",
            "railway=unknown",
            "659",
            "337133"
          ],
          [
            "-1145965",
            "52952029",
            "42",
            "20",
            "2000",
            "0",
            "0",
            "0",
            "0",
            "railway=tram",
            "railway=unknown",
            "660",
            "338967"
          ],
          [
            "-1145893",
            "52952301",
            "43",
            "31",
            "2000",
            "0",
            "0",
            "0",
            "0",
            "railway=tram",
            "railway=unknown",
            "663",
            "341773"
          ],
          [
            "-1145825",
            "52952469",
            "44",
            "19",
            "2000",
            "0",
            "0",
            "0",
            "0",
            "railway=tram",
            "railway=unknown",
            "664",
            "343440"
          ],
          [
            "-1145443",
            "52952986",
            "46",
            "64",
            "2000",
            "0",
            "0",
            "0",
            "0",
            "railway=tram",
            "wheelchair=yes railway=tram_stop",
            "669",
            "348719"
          ],
          [
            "-1145351",
            "52953103",
            "45",
            "14",
            "2000",
            "0",
            "0",
            "0",
            "0",
            "railway=tram",
            "railway=unknown",
            "671",
            "349682"
          ],
          [
            "-1147100",
            "52953155",
            "39",
            "135",
            "2000",
            "0",
            "0",
            "0",
            "0",
            "railway=tram",
            "railway=unknown",
            "681",
            "356440"
          ],
          [
            "-1147629",
            "52953159",
            "38",
            "36",
            "2000",
            "0",
            "0",
            "0",
            "0",
            "railway=tram",
            "railway=unknown",
            "684",
            "358008"
          ],
          [
            "-1148228",
            "52953166",
            "36",
            "40",
            "2000",
            "0",
            "0",
            "0",
            "0",
            "railway=tram",
            "railway=unknown",
            "687",
            "359319"
          ],
          [
            "-1148446",
            "52953165",
            "36",
            "15",
            "2000",
            "0",
            "0",
            "0",
            "0",
            "railway=tram",
            "railway=unknown",
            "689",
            "359821"
          ],
          [
            "-1148843",
            "52953159",
            "35",
            "27",
            "2000",
            "0",
            "0",
            "0",
            "0",
            "railway=tram",
            "railway=unknown",
            "691",
            "360621"
          ],
          [
            "-1149222",
            "52953150",
            "36",
            "25",
            "2000",
            "0",
            "0",
            "0",
            "0",
            "railway=tram",
            "railway=unknown",
            "693",
            "361542"
          ],
          [
            "-1150209",
            "52953027",
            "35",
            "67",
            "2000",
            "0",
            "0",
            "0",
            "0",
            "railway=tram",
            "",
            "698",
            "364095"
          ]
        ],
        "times": [
          0,
          0.08,
          2.08,
          4.16,
          7.68,
          8.08,
          8.88,
          9.6,
          10.08,
          11.28,
          12.16,
          13.04,
          13.52,
          14,
          14.8,
          15.76,
          16.72,
          18.72,
          18.8,
          19.2,
          24.56,
          24.8,
          26.88,
          28.4,
          30.24,
          33.44,
          33.6,
          34.96,
          40.4,
          43.28,
          60.32,
          61.52,
          62.48,
          62.88,
          63.84,
          64.64,
          65.84,
          66,
          67.2,
          70.4,
          70.88,
          71.44,
          72.16,
          72.56,
          73.04,
          73.68,
          74.32,
          77.6,
          80.08,
          83.12,
          85.52,
          87.92,
          90.08,
          90.72,
          92.4,
          101.68,
          110.8,
          113.92,
          115.92,
          117.52,
          118,
          119.12,
          128.72,
          131.84,
          135.84,
          138.4,
          151.2,
          157.92,
          162.16,
          168.64,
          181.04,
          183.84,
          186.24,
          187.12,
          189.52,
          192,
          194.32,
          198.08,
          201.28,
          205.04,
          208.24,
          209.12,
          210,
          210.8,
          211.2,
          211.76,
          212.56,
          212.96,
          213.68,
          214.24,
          216.48,
          217.04,
          217.52,
          218.4,
          218.8,
          219.2,
          219.6,
          220,
          220.72,
          221.04,
          222.16,
          225.2,
          226.24,
          227.6,
          228.48,
          231.12,
          233.44,
          235.84,
          237.28,
          243.52,
          249.2,
          257.76,
          265.36,
          269.04,
          270.08,
          270.8,
          271.52,
          272.48,
          273.52,
          274.32,
          275.28,
          276,
          277.12,
          278,
          282.48,
          288.64,
          290.64,
          291.28,
          292.08,
          292.72,
          293.36,
          295.36,
          297.92,
          302.96,
          332.56,
          333.2,
          337.28,
          355.36,
          389.76,
          390.56,
          393.44,
          393.52,
          393.76,
          394.08,
          394.24,
          394.88,
          398.56,
          401.84,
          404.24,
          405.84,
          410.08,
          412.96,
          414.56,
          427.36,
          429.28,
          435.44,
          439.36,
          439.76,
          441.6,
          443.28,
          444.72,
          450.08,
          455.36,
          464.88,
          466.16,
          467.76,
          468.64,
          469.44,
          470.24,
          470.64,
          471.52,
          472.56,
          482.8,
          484.96,
          485.68,
          486.24,
          486.56,
          487.2,
          487.92,
          488.32,
          489.12,
          490.24,
          491.44,
          494.8,
          497.04,
          497.84,
          498.64,
          500.72,
          502.4,
          516.56,
          517.84,
          518.4,
          518.96,
          519.52,
          520,
          520.88,
          522.24,
          523.2,
          526.72,
          528.32,
          529.28,
          535.04,
          540.16,
          547.52,
          548.96,
          551.52,
          551.76,
          560.16,
          564.64,
          566.48,
          566.56,
          567.04,
          568.24,
          568.88,
          569.2,
          575.68,
          576.8,
          578.88,
          579.68,
          579.76,
          580.32,
          580.8,
          581.28,
          582.16,
          583.2,
          583.44,
          583.84,
          584.32,
          584.72,
          584.8,
          585.28,
          585.68,
          586.4,
          586.8,
          587.36,
          587.6,
          588.4,
          589.76,
          590.96,
          593.12,
          593.44,
          593.68,
          593.92,
          594.16,
          594.56,
          595.04,
          595.68,
          596.08,
          596.72,
          597.28,
          597.84,
          598.48,
          598.96,
          600.32,
          600.56,
          604.64,
          611.36,
          615.12,
          616.24,
          620.56,
          621.76,
          624.16,
          625.92,
          628.32,
          630.32,
          634.32,
          635.92,
          643.6,
          644.32,
          645.36,
          646.32,
          646.48,
          647.28,
          648.24,
          648.96,
          650.08,
          653.92,
          655.04,
          655.92,
          656.32,
          657.6,
          659.28,
          660.88,
          663.36,
          664.32,
          664.88,
          666.8,
          670,
          671.12,
          671.44,
          671.92,
          672.4,
          672.88,
          673.28,
          673.68,
          674.16,
          677.04,
          678.72,
          679.52,
          680.4,
          681.92,
          684.8,
          688,
          689.2,
          691.36,
          693.36,
          694.72,
          698.72
        ]
      },
      "geometry": {
        "type": "LineString",
        "coordinates": [
          [
            -1.19321,
            52.896394,
            62
          ],
          [
            -1.193206,
            52.896396,
            62
          ],
          [
            -1.192915,
            52.89654,
            62
          ],
          [
            -1.192617,
            52.896687,
            62
          ],
          [
            -1.192112,
            52.89694,
            61.5
          ],
          [
            -1.19205,
            52.896968,
            61.25
          ],
          [
            -1.191917,
            52.897014,
            61
          ],
          [
            -1.191799,
            52.897056,
            61
          ],
          [
            -1.191722,
            52.897091,
            61
          ],
          [
            -1.191551,
            52.897182,
            60.5
          ],
          [
            -1.191419,
            52.897243,
            60.25
          ],
          [
            -1.191266,
            52.897281,
            60
          ],
          [
            -1.191173,
            52.897293,
            59.75
          ],
          [
            -1.191085,
            52.897297,
            59.75
          ],
          [
            -1.19094,
            52.897288,
            59.25
          ],
          [
            -1.19076,
            52.897272,
            59
          ],
          [
            -1.190588,
            52.89726,
            59
          ],
          [
            -1.190218,
            52.897217,
            57.75
          ],
          [
            -1.190198,
            52.897215,
            57.75
          ],
          [
            -1.190123,
            52.897206,
            57.75
          ],
          [
            -1.18915,
            52.897093,
            56.5
          ],
          [
            -1.18911,
            52.897089,
            56.5
          ],
          [
            -1.188735,
            52.897045,
            56.25
          ],
          [
            -1.188453,
            52.89701,
            56
          ],
          [
            -1.188111,
            52.896974,
            56
          ],
          [
            -1.187521,
            52.896909,
            54.75
          ],
          [
            -1.187488,
            52.896906,
            54.75
          ],
          [
            -1.187242,
            52.896884,
            54.75
          ],
          [
            -1.186237,
            52.896835,
            53.25
          ],
          [
            -1.185702,
            52.896825,
            52.5
          ],
          [
            -1.182546,
            52.896805,
            46
          ],
          [
            -1.182318,
            52.896803,
            45
          ],
          [
            -1.182137,
            52.896802,
            44
          ],
          [
            -1.18206,
            52.896802,
            43.75
          ],
          [
            -1.181887,
            52.896804,
            43.25
          ],
          [
            -1.181747,
            52.896819,
            43
          ],
          [
            -1.181555,
            52.896882,
            42.5
          ],
          [
            -1.181532,
            52.896892,
            42.5
          ],
          [
            -1.181353,
            52.896972,
            41.75
          ],
          [
            -1.180878,
            52.897185,
            39.25
          ],
          [
            -1.180804,
            52.897222,
            39
          ],
          [
            -1.180725,
            52.897269,
            38.75
          ],
          [
            -1.180657,
            52.897341,
            38.5
          ],
          [
            -1.180633,
            52.897385,
            38.5
          ],
          [
            -1.180617,
            52.897442,
            38.25
          ],
          [
            -1.180617,
            52.897517,
            38
          ],
          [
            -1.180615,
            52.897585,
            38
          ],
          [
            -1.180603,
            52.897957,
            38
          ],
          [
            -1.180577,
            52.898238,
            38
          ],
          [
            -1.180498,
            52.898577,
            37
          ],
          [
            -1.180405,
            52.89884,
            37
          ],
          [
            -1.180285,
            52.899101,
            37
          ],
          [
            -1.180152,
            52.899334,
            37.25
          ],
          [
            -1.180112,
            52.899398,
            37.25
          ],
          [
            -1.180021,
            52.899575,
            37.5
          ],
          [
            -1.179308,
            52.900524,
            40.75
          ],
          [
            -1.178611,
            52.901453,
            41
          ],
          [
            -1.17837,
            52.901774,
            41
          ],
          [
            -1.178198,
            52.901969,
            41
          ],
          [
            -1.178077,
            52.902134,
            41
          ],
          [
            -1.178041,
            52.902183,
            41
          ],
          [
            -1.177955,
            52.902301,
            41
          ],
          [
            -1.177216,
            52.903284,
            41.75
          ],
          [
            -1.176979,
            52.903606,
            42
          ],
          [
            -1.176678,
            52.90402,
            41.5
          ],
          [
            -1.176498,
            52.904286,
            40.5
          ],
          [
            -1.175595,
            52.905621,
            35.75
          ],
          [
            -1.175123,
            52.90632,
            37.75
          ],
          [
            -1.174824,
            52.906761,
            38.25
          ],
          [
            -1.174372,
            52.907431,
            40
          ],
          [
            -1.173491,
            52.908717,
            42
          ],
          [
            -1.17326,
            52.908999,
            41.5
          ],
          [
            -1.173032,
            52.909229,
            40.75
          ],
          [
            -1.17294,
            52.909313,
            40.25
          ],
          [
            -1.172678,
            52.909527,
            39.5
          ],
          [
            -1.172381,
            52.909738,
            38.75
          ],
          [
            -1.172079,
            52.909926,
            38
          ],
          [
            -1.171543,
            52.910195,
            36.5
          ],
          [
            -1.171072,
            52.910419,
            35.25
          ],
          [
            -1.170513,
            52.91068,
            32.75
          ],
          [
            -1.170036,
            52.910899,
            31
          ],
          [
            -1.169897,
            52.910952,
            30.75
          ],
          [
            -1.169747,
            52.910996,
            30.25
          ],
          [
            -1.1696,
            52.911024,
            30
          ],
          [
            -1.169527,
            52.911028,
            30
          ],
          [
            -1.169419,
            52.911023,
            29.75
          ],
          [
            -1.169286,
            52.910989,
            29.5
          ],
          [
            -1.16922,
            52.910962,
            29.5
          ],
          [
            -1.16913,
            52.910903,
            29.5
          ],
          [
            -1.169075,
            52.910853,
            29.75
          ],
          [
            -1.168859,
            52.910635,
            30.5
          ],
          [
            -1.168796,
            52.910582,
            30.75
          ],
          [
            -1.168733,
            52.910549,
            31
          ],
          [
            -1.168591,
            52.910502,
            31
          ],
          [
            -1.168526,
            52.910489,
            31
          ],
          [
            -1.168456,
            52.910483,
            31.25
          ],
          [
            -1.168384,
            52.91048,
            31.25
          ],
          [
            -1.168304,
            52.910485,
            31.25
          ],
          [
            -1.168172,
            52.910507,
            31
          ],
          [
            -1.168116,
            52.910523,
            31
          ],
          [
            -1.167933,
            52.910579,
            30.75
          ],
          [
            -1.167415,
            52.910719,
            30.25
          ],
          [
            -1.167231,
            52.910765,
            30
          ],
          [
            -1.166988,
            52.910803,
            29.25
          ],
          [
            -1.166826,
            52.910817,
            29
          ],
          [
            -1.16633,
            52.910829,
            29
          ],
          [
            -1.165897,
            52.910855,
            28.75
          ],
          [
            -1.165462,
            52.910896,
            28.5
          ],
          [
            -1.165207,
            52.910934,
            27.75
          ],
          [
            -1.164102,
            52.911135,
            28.5
          ],
          [
            -1.163097,
            52.911318,
            28.5
          ],
          [
            -1.161578,
            52.911595,
            29.5
          ],
          [
            -1.16022,
            52.911844,
            29.75
          ],
          [
            -1.159571,
            52.911967,
            29.5
          ],
          [
            -1.159395,
            52.912012,
            30.25
          ],
          [
            -1.159276,
            52.912055,
            30.25
          ],
          [
            -1.159165,
            52.912103,
            29.75
          ],
          [
            -1.159031,
            52.912174,
            29.75
          ],
          [
            -1.158905,
            52.912258,
            29.75
          ],
          [
            -1.158818,
            52.912333,
            29.5
          ],
          [
            -1.158735,
            52.912425,
            29.25
          ],
          [
            -1.158685,
            52.912499,
            29.25
          ],
          [
            -1.158627,
            52.912616,
            29
          ],
          [
            -1.158604,
            52.912715,
            29
          ],
          [
            -1.158529,
            52.913219,
            29.25
          ],
          [
            -1.158391,
            52.91391,
            29.75
          ],
          [
            -1.158362,
            52.914135,
            30.5
          ],
          [
            -1.158352,
            52.91421,
            30.5
          ],
          [
            -1.158341,
            52.9143,
            30.25
          ],
          [
            -1.158331,
            52.914375,
            30
          ],
          [
            -1.158323,
            52.914444,
            30
          ],
          [
            -1.158296,
            52.914669,
            29.25
          ],
          [
            -1.15826,
            52.914959,
            29
          ],
          [
            -1.158163,
            52.915523,
            28
          ],
          [
            -1.157525,
            52.918822,
            25.75
          ],
          [
            -1.157514,
            52.918891,
            25.75
          ],
          [
            -1.157428,
            52.91935,
            25.25
          ],
          [
            -1.157019,
            52.921369,
            24
          ],
          [
            -1.156265,
            52.925208,
            23
          ],
          [
            -1.156248,
            52.925299,
            23
          ],
          [
            -1.156185,
            52.925617,
            23
          ],
          [
            -1.156183,
            52.92563,
            23
          ],
          [
            -1.156176,
            52.925661,
            22.75
          ],
          [
            -1.15617,
            52.925693,
            23
          ],
          [
            -1.156167,
            52.925708,
            23
          ],
          [
            -1.156153,
            52.925782,
            23
          ],
          [
            -1.156074,
            52.926192,
            23
          ],
          [
            -1.155989,
            52.926558,
            23.25
          ],
          [
            -1.155894,
            52.926825,
            23
          ],
          [
            -1.155816,
            52.926996,
            23
          ],
          [
            -1.155585,
            52.927448,
            23.25
          ],
          [
            -1.155461,
            52.927762,
            23.5
          ],
          [
            -1.15541,
            52.927938,
            23.75
          ],
          [
            -1.155116,
            52.929366,
            24
          ],
          [
            -1.155056,
            52.929583,
            23.5
          ],
          [
            -1.154841,
            52.93026,
            22.25
          ],
          [
            -1.154702,
            52.930692,
            22
          ],
          [
            -1.154688,
            52.930734,
            22
          ],
          [
            -1.154623,
            52.930938,
            22
          ],
          [
            -1.15456,
            52.931127,
            22.25
          ],
          [
            -1.154508,
            52.931287,
            22.5
          ],
          [
            -1.154292,
            52.931875,
            23.25
          ],
          [
            -1.154044,
            52.932449,
            23.75
          ],
          [
            -1.153562,
            52.93348,
            24
          ],
          [
            -1.153496,
            52.933621,
            23.75
          ],
          [
            -1.153431,
            52.933792,
            24
          ],
          [
            -1.153426,
            52.933895,
            24
          ],
          [
            -1.153452,
            52.933985,
            24.5
          ],
          [
            -1.15351,
            52.934072,
            24.75
          ],
          [
            -1.153544,
            52.934107,
            24.75
          ],
          [
            -1.153654,
            52.934182,
            24.75
          ],
          [
            -1.153805,
            52.934251,
            24.25
          ],
          [
            -1.155421,
            52.934857,
            24.75
          ],
          [
            -1.15576,
            52.934986,
            25.75
          ],
          [
            -1.15587,
            52.935038,
            25.75
          ],
          [
            -1.155935,
            52.935088,
            25.5
          ],
          [
            -1.155968,
            52.935123,
            25.5
          ],
          [
            -1.156006,
            52.935187,
            25.75
          ],
          [
            -1.156017,
            52.935266,
            25.75
          ],
          [
            -1.15601,
            52.935314,
            26
          ],
          [
            -1.155962,
            52.935401,
            26
          ],
          [
            -1.15585,
            52.935509,
            26
          ],
          [
            -1.155737,
            52.93562,
            25.5
          ],
          [
            -1.155407,
            52.935942,
            25.25
          ],
          [
            -1.155185,
            52.936153,
            25.25
          ],
          [
            -1.155121,
            52.936239,
            24.75
          ],
          [
            -1.155079,
            52.936321,
            24.75
          ],
          [
            -1.154982,
            52.936544,
            25.25
          ],
          [
            -1.154905,
            52.936726,
            24.75
          ],
          [
            -1.154259,
            52.938268,
            25
          ],
          [
            -1.154197,
            52.938403,
            25.75
          ],
          [
            -1.15417,
            52.938462,
            25.75
          ],
          [
            -1.154136,
            52.938525,
            26
          ],
          [
            -1.154102,
            52.938586,
            26
          ],
          [
            -1.154066,
            52.938631,
            25.75
          ],
          [
            -1.15399,
            52.93872,
            25.5
          ],
          [
            -1.153863,
            52.938856,
            25
          ],
          [
            -1.153777,
            52.938952,
            25
          ],
          [
            -1.153429,
            52.939291,
            25.5
          ],
          [
            -1.153274,
            52.939444,
            25
          ],
          [
            -1.153185,
            52.93954,
            25.5
          ],
          [
            -1.152685,
            52.940109,
            25
          ],
          [
            -1.152242,
            52.940613,
            25
          ],
          [
            -1.151602,
            52.941343,
            25.25
          ],
          [
            -1.151473,
            52.941489,
            25.75
          ],
          [
            -1.151252,
            52.941741,
            26
          ],
          [
            -1.151233,
            52.941762,
            26
          ],
          [
            -1.1505,
            52.9426,
            25
          ],
          [
            -1.150114,
            52.943041,
            25
          ],
          [
            -1.149954,
            52.943223,
            25
          ],
          [
            -1.149946,
            52.943232,
            25
          ],
          [
            -1.149907,
            52.943281,
            25
          ],
          [
            -1.149837,
            52.943413,
            24.75
          ],
          [
            -1.149787,
            52.94348,
            24.75
          ],
          [
            -1.149759,
            52.943512,
            24.75
          ],
          [
            -1.149196,
            52.944159,
            25.75
          ],
          [
            -1.149109,
            52.944275,
            25.5
          ],
          [
            -1.148993,
            52.944498,
            25.5
          ],
          [
            -1.148929,
            52.944579,
            25.75
          ],
          [
            -1.148921,
            52.944587,
            25.75
          ],
          [
            -1.148854,
            52.944634,
            25.75
          ],
          [
            -1.148789,
            52.944666,
            25.75
          ],
          [
            -1.148706,
            52.944693,
            25.75
          ],
          [
            -1.148554,
            52.944716,
            25.75
          ],
          [
            -1.148365,
            52.944716,
            25.75
          ],
          [
            -1.148325,
            52.944715,
            25.75
          ],
          [
            -1.148245,
            52.944709,
            25.5
          ],
          [
            -1.148151,
            52.944699,
            25.25
          ],
          [
            -1.148078,
            52.944691,
            25
          ],
          [
            -1.148068,
            52.944691,
            25
          ],
          [
            -1.147978,
            52.944683,
            25
          ],
          [
            -1.147904,
            52.944677,
            25
          ],
          [
            -1.147768,
            52.944671,
            25
          ],
          [
            -1.147691,
            52.944671,
            25
          ],
          [
            -1.147582,
            52.944673,
            25
          ],
          [
            -1.147536,
            52.944675,
            25
          ],
          [
            -1.147392,
            52.944686,
            25
          ],
          [
            -1.147136,
            52.944706,
            25
          ],
          [
            -1.146918,
            52.944723,
            25
          ],
          [
            -1.146521,
            52.944756,
            25
          ],
          [
            -1.146459,
            52.944763,
            25
          ],
          [
            -1.146412,
            52.944769,
            25
          ],
          [
            -1.146373,
            52.944775,
            25
          ],
          [
            -1.146327,
            52.944784,
            25
          ],
          [
            -1.146259,
            52.9448,
            25
          ],
          [
            -1.146182,
            52.944825,
            25
          ],
          [
            -1.146086,
            52.944864,
            25
          ],
          [
            -1.146029,
            52.944896,
            25
          ],
          [
            -1.145953,
            52.944953,
            25
          ],
          [
            -1.145899,
            52.945011,
            25
          ],
          [
            -1.145862,
            52.945066,
            25
          ],
          [
            -1.145831,
            52.94514,
            25
          ],
          [
            -1.145822,
            52.945198,
            25
          ],
          [
            -1.145815,
            52.945347,
            25
          ],
          [
            -1.145814,
            52.945373,
            25
          ],
          [
            -1.145811,
            52.945831,
            25.75
          ],
          [
            -1.145717,
            52.946586,
            27
          ],
          [
            -1.14566,
            52.947005,
            27.75
          ],
          [
            -1.145644,
            52.94713,
            27.75
          ],
          [
            -1.145577,
            52.947611,
            28.75
          ],
          [
            -1.145563,
            52.947742,
            29
          ],
          [
            -1.145535,
            52.948008,
            29.25
          ],
          [
            -1.14553,
            52.948203,
            29.75
          ],
          [
            -1.145548,
            52.948475,
            30.25
          ],
          [
            -1.145579,
            52.9487,
            30.5
          ],
          [
            -1.145666,
            52.949148,
            31.25
          ],
          [
            -1.1457,
            52.949324,
            31.5
          ],
          [
            -1.145876,
            52.950181,
            33
          ],
          [
            -1.145916,
            52.95026,
            33.25
          ],
          [
            -1.145994,
            52.950364,
            33.25
          ],
          [
            -1.146083,
            52.950455,
            33.5
          ],
          [
            -1.146095,
            52.950467,
            33.5
          ],
          [
            -1.146168,
            52.950546,
            33.75
          ],
          [
            -1.146232,
            52.950648,
            34
          ],
          [
            -1.146261,
            52.950726,
            34
          ],
          [
            -1.146281,
            52.950848,
            34.5
          ],
          [
            -1.146297,
            52.951276,
            37.75
          ],
          [
            -1.146288,
            52.951402,
            38.25
          ],
          [
            -1.146263,
            52.951498,
            38.75
          ],
          [
            -1.146234,
            52.951542,
            39
          ],
          [
            -1.146144,
            52.951676,
            39.75
          ],
          [
            -1.146044,
            52.951857,
            41.25
          ],
          [
            -1.145965,
            52.952029,
            42.25
          ],
          [
            -1.145893,
            52.952301,
            43.5
          ],
          [
            -1.145856,
            52.952409,
            44.25
          ],
          [
            -1.145825,
            52.952469,
            44.75
          ],
          [
            -1.145708,
            52.952669,
            45.5
          ],
          [
            -1.145443,
            52.952986,
            46
          ],
          [
            -1.145351,
            52.953103,
            45.75
          ],
          [
            -1.145343,
            52.953139,
            45.75
          ],
          [
            -1.145346,
            52.953196,
            45.75
          ],
          [
            -1.145384,
            52.953243,
            45.5
          ],
          [
            -1.145447,
            52.953284,
            45.25
          ],
          [
            -1.145514,
            52.953307,
            45
          ],
          [
            -1.145585,
            52.953317,
            44.75
          ],
          [
            -1.145678,
            52.953313,
            44.5
          ],
          [
            -1.146196,
            52.953229,
            43
          ],
          [
            -1.146499,
            52.953186,
            42
          ],
          [
            -1.146651,
            52.95317,
            41.5
          ],
          [
            -1.146821,
            52.953161,
            40.5
          ],
          [
            -1.1471,
            52.953155,
            39.25
          ],
          [
            -1.147629,
            52.953159,
            38
          ],
          [
            -1.148228,
            52.953166,
            36.5
          ],
          [
            -1.148446,
            52.953165,
            36.25
          ],
          [
            -1.148843,
            52.953159,
            35.5
          ],
          [
            -1.149222,
            52.95315,
            36
          ],
          [
            -1.149477,
            52.953128,
            36
          ],
          [
            -1.150209,
            52.953027,
            35.75
          ]
        ]
      }
    }
  ]
}