{
  "type": "FeatureCollection",
  "features": [
    {
      "type": "Feature",
      "properties": {
        "creator": "BRouter-1.7.9",
        "name": "StLeonards-TunbridgeWells (43.9km)",
        "track-length": "43948",
        "filtered ascend": "200",
        "plain-ascend": "68",
        "total-time": "3516",
        "total-energy": "1995135",
        "cost": "43948",
        "messages": [
          [
            "Longitude",
            "Latitude",
            "Elevation",
            "Distance",
            "CostPerKm",
            "ElevCost",
            "TurnCost",
            "NodeCost",
            "InitialCost",
            "WayTags",
            "NodeTags",
            "Time",
            "Energy"
          ],
          [
            "559841",
            "50855637",
            "21",
            "55",
            "1000",
            "0",
            "0",
            "0",
            "0",
            "railway=rail",
            "railway=halt",
            "4",
            "1672"
          ],
          [
            "556197",
            "50855149",
            "21",
            "262",
            "1000",
            "0",
            "0",
            "0",
            "0",
            "railway=rail",
            "",
            "25",
            "13479"
          ],
          [
            "542407",
            "50853194",
            "19",
            "996",
            "1000",
            "0",
            "0",
            "0",
            "0",
            "reversedirection=yes railway=rail",
            "railway=switch",
            "105",
            "54856"
          ],
          [
            "540699",
            "50853107",
            "14",
            "121",
            "1000",
            "0",
            "0",
            "0",
            "0",
            "reversedirection=yes railway=rail",
            "railway=halt",
            "114",
            "58069"
          ],
          [
            "528945",
            "50865143",
            "21",
            "1715",
            "1000",
            "0",
            "0",
            "0",
            "0",
            "reversedirection=yes railway=rail",
            "crossing=uncontrolled railway=crossing",
            "251",
            "137152"
          ],
          [
            "502114",
            "50888550",
            "50",
            "3400",
            "1000",
            "0",
            "0",
            "0",
            "0",
            "reversedirection=yes railway=rail",
            "railway=halt",
            "523",
            "308524"
          ],
          [
            "494986",
            "50912931",
            "58",
            "3305",
            "1000",
            "0",
            "0",
            "0",
            "0",
            "reversedirection=yes railway=rail",
            "railway=halt",
            "788",
            "466632"
          ],
          [
            "496684",
            "50915109",
            "55",
            "270",
            "1000",
            "0",
            "0",
            "0",
            "0",
            "reversedirection=yes railway=rail",
            "railway=level_crossing",
            "809",
            "476328"
          ],
          [
            "483414",
            "50950632",
            "39",
            "4420",
            "1000",
            "0",
            "0",
            "0",
            "0",
            "reversedirection=yes railway=rail",
            "railway=level_crossing",
            "1163",
            "652945"
          ],
          [
            "478961",
            "50951139",
            "38",
            "320",
            "1000",
            "0",
            "0",
            "0",
            "0",
            "reversedirection=yes railway=rail",
            "railway=level_crossing",
            "1189",
            "666946"
          ],
          [
            "467344",
            "50953134",
            "49",
            "872",
            "1000",
            "0",
            "0",
            "0",
            "0",
            "reversedirection=yes railway=rail",
            "railway=switch",
            "1258",
            "710215"
          ],
          [
            "463237",
            "50957939",
            "42",
            "612",
            "1000",
            "0",
            "0",
            "0",
            "0",
            "reversedirection=yes railway=rail",
            "railway=switch",
            "1307",
            "740708"
          ],
          [
            "466227",
            "50974245",
            "16",
            "1846",
            "1000",
            "0",
            "0",
            "0",
            "0",
            "reversedirection=yes railway=rail",
            "railway=crossing",
            "1455",
            "796673"
          ],
          [
            "468702",
            "50984600",
            "17",
            "1167",
            "1000",
            "0",
            "0",
            "0",
            "0",
            "reversedirection=yes railway=rail",
            "railway=level_crossing",
            "1548",
            "845839"
          ],
          [
            "468704",
            "50984735",
            "17",
            "15",
            "1000",
            "0",
            "0",
            "0",
            "0",
            "reversedirection=yes railway=rail",
            "railway=halt",
            "1550",
            "846533"
          ],
          [
            "468659",
            "50986503",
            "18",
            "196",
            "1000",
            "0",
            "0",
            "0",
            "0",
            "reversedirection=yes railway=rail",
            "railway=switch",
            "1565",
            "855984"
          ],
          [
            "468598",
            "50986935",
            "17",
            "48",
            "1000",
            "0",
            "0",
            "0",
            "0",
            "reversedirection=yes railway=rail",
            "railway=switch",
            "1569",
            "857774"
          ],
          [
            "456104",
            "51001712",
            "14",
            "1901",
            "1000",
            "0",
            "0",
            "0",
            "0",
            "reversedirection=yes railway=rail",
            "railway=crossing",
            "1721",
            "937944"
          ],
          [
            "443571",
            "51010210",
            "17",
            "1308",
            "1000",
            "0",
            "0",
            "0",
            "0",
            "reversedirection=yes railway=rail",
            "railway=level_crossing",
            "1826",
            "997946"
          ],
          [
            "443109",
            "51010395",
            "17",
            "38",
            "1000",
            "0",
            "0",
            "0",
            "0",
            "reversedirection=yes railway=rail",
            "railway=halt",
            "1829",
            "999761"
          ],
          [
            "424850",
            "51013743",
            "19",
            "1355",
            "1000",
            "0",
            "0",
            "0",
            "0",
            "reversedirection=yes railway=rail",
            "railway=crossing",
            "1937",
            "1061561"
          ],
          [
            "397266",
            "51013793",
            "30",
            "1934",
            "1000",
            "0",
            "0",
            "0",
            "0",
            "reversedirection=yes railway=rail",
            "railway=level_crossing",
            "2092",
            "1153232"
          ],
          [
            "388896",
            "51013441",
            "34",
            "589",
            "1000",
            "0",
            "0",
            "0",
            "0",
            "reversedirection=yes railway=rail",
            "railway=crossing",
            "2139",
            "1182795"
          ],
          [
            "375575",
            "51014779",
            "40",
            "951",
            "1000",
            "0",
            "0",
            "0",
            "0",
            "reversedirection=yes railway=rail",
            "railway=crossing",
            "2215",
            "1232142"
          ],
          [
            "363962",
            "51019777",
            "48",
            "995",
            "1000",
            "0",
            "0",
            "0",
            "0",
            "reversedirection=yes railway=rail",
            "railway=halt",
            "2295",
            "1283504"
          ],
          [
            "357674",
            "51024419",
            "51",
            "679",
            "1000",
            "0",
            "0",
            "0",
            "0",
            "reversedirection=yes railway=rail",
            "railway=crossing",
            "2349",
            "1316555"
          ],
          [
            "330535",
            "51047268",
            "80",
            "3228",
            "1000",
            "0",
            "0",
            "0",
            "0",
            "reversedirection=yes railway=rail",
            "railway=crossing",
            "2607",
            "1480175"
          ],
          [
            "321093",
            "51053194",
            "90",
            "1027",
            "1000",
            "0",
            "0",
            "0",
            "0",
            "reversedirection=yes railway=rail",
            "railway=crossing",
            "2690",
            "1536829"
          ],
          [
            "321814",
            "51057140",
            "99",
            "444",
            "1000",
            "0",
            "0",
            "0",
            "0",
            "reversedirection=yes railway=rail",
            "railway=switch",
            "2725",
            "1561067"
          ],
          [
            "318852",
            "51067697",
            "105",
            "1193",
            "1000",
            "0",
            "0",
            "0",
            "0",
            "railway=rail",
            "railway=switch",
            "2820",
            "1626590"
          ],
          [
            "316388",
            "51070649",
            "105",
            "374",
            "1000",
            "0",
            "0",
            "0",
            "0",
            "railway=rail",
            "railway=crossing",
            "2850",
            "1639900"
          ],
          [
            "314125",
            "51072477",
            "105",
            "258",
            "1000",
            "0",
            "0",
            "0",
            "0",
            "railway=rail",
            "railway=switch",
            "2871",
            "1650800"
          ],
          [
            "312387",
            "51073821",
            "109",
            "192",
            "1000",
            "0",
            "0",
            "0",
            "0",
            "railway=rail",
            "railway=halt",
            "2886",
            "1660730"
          ],
          [
            "293574",
            "51104922",
            "100",
            "4282",
            "1000",
            "0",
            "0",
            "0",
            "0",
            "railway=rail",
            "railway=halt",
            "3229",
            "1843580"
          ],
          [
            "276403",
            "51119733",
            "104",
            "2044",
            "1000",
            "0",
            "0",
            "0",
            "0",
            "railway=rail",
            "railway=switch",
            "3392",
            "1939806"
          ],
          [
            "273271",
            "51121311",
            "112",
            "280",
            "1000",
            "0",
            "0",
            "0",
            "0",
            "reversedirection=yes railway=rail",
            "",
            "3415",
            "1953224"
          ],
          [
            "267963",
            "51123992",
            "96",
            "476",
            "1000",
            "0",
            "0",
            "0",
            "0",
            "railway=rail",
            "railway=switch",
            "3453",
            "1966312"
          ],
          [
            "267183",
            "51124531",
            "96",
            "81",
            "1000",
            "0",
            "0",
            "0",
            "0",
            "reversedirection=yes railway=rail",
            "railway=switch",
            "3459",
            "1969377"
          ],
          [
            "266873",
            "51124766",
            "95",
            "34",
            "1000",
            "0",
            "0",
            "0",
            "0",
            "reversedirection=yes railway=rail",
            "railway=switch",
            "3462",
            "1970503"
          ],
          [
            "266074",
            "51125372",
            "94",
            "87",
            "1000",
            "0",
            "0",
            "0",
            "0",
            "railway=rail",
            "railway=switch",
            "3469",
            "1973635"
          ],
          [
            "263000",
            "51130152",
            "91",
            "578",
            "1000",
            "0",
            "0",
            "0",
            "0",
            "railway=rail",
            "",
            "3515",
            "1995135"
          ]
        ],
        "times": [
          0,
          4.4,
          6.16,
          25.36,
          102.56,
          103.12,
          105.04,
          109.36,
          111.52,
          113.92,
          114.72,
          116.16,
          118.4,
          120.16,
          121.68,
          123.2,
          124.88,
          126.64,
          128.48,
          130.32,
          132.72,
          134.88,
          137.28,
          139.44,
          141.04,
          143.04,
          144.64,
          146.24,
          152.32,
          154.08,
          155.84,
          157.92,
          160,
          164.56,
          168.96,
          173.44,
          176.64,
          179.92,
          185.68,
          187.84,
          191.2,
          195.12,
          199.6,
          203.28,
          210.48,
          217.52,
          221.2,
          225.92,
          230.8,
          237.04,
          243.04,
          248.24,
          251.92,
          254.16,
          284.88,
          289.92,
          294.88,
          299.92,
          307.84,
          314.56,
          318.88,
          322.56,
          326.56,
          333.2,
          337.36,
          341.36,
          345.52,
          350.08,
          354.88,
          359.28,
          363.52,
          368.88,
          377.44,
          382.32,
          386.48,
          406.16,
          411.12,
          414.56,
          420.32,
          441.28,
          451.04,
          456.24,
          461.12,
          466.08,
          471.2,
          475.52,
          479.92,
          485.68,
          491.6,
          495.28,
          499.04,
          505.6,
          512.88,
          523.92,
          535.52,
          539.2,
          543.12,
          548.64,
          553.68,
          558.48,
          562.64,
          567.52,
          571.92,
          579.04,
          582.32,
          589.6,
          595.6,
          599.36,
          603.68,
          608.08,
          614.08,
          618.64,
          623.36,
          630.56,
          655.92,
          676.24,
          680.24,
          684.24,
          692.56,
          696.08,
          699.6,
          703.36,
          707.04,
          725.28,
          730.08,
          734.8,
          744.16,
          754,
          761.68,
          776.48,
          788.32,
          793.12,
          795.68,
          798.32,
          801.92,
          807.44,
          809.92,
          816.24,
          822.08,
          832.48,
          850.32,
          869.04,
          875.2,
          890.96,
          901.04,
          904.56,
          907.76,
          911.04,
          918,
          924.08,
          935.28,
          940.32,
          951.44,
          961.28,
          965.52,
          967.84,
          971.12,
          978.88,
          986.64,
          1002.08,
          1011.76,
          1016.64,
          1020.24,
          1021.68,
          1030.24,
          1034.8,
          1039.44,
          1044.08,
          1048.8,
          1053.84,
          1058.96,
          1064.24,
          1069.36,
          1074.24,
          1079.36,
          1084.24,
          1114.24,
          1132.64,
          1136.56,
          1140.48,
          1144.641,
          1149.041,
          1158.24,
          1163.521,
          1171.441,
          1175.361,
          1179.761,
          1189.121,
          1217.761,
          1222.241,
          1226.401,
          1233.921,
          1238.081,
          1241.841,
          1247.041,
          1250.641,
          1254.081,
          1258.881,
          1263.361,
          1267.681,
          1269.601,
          1271.761,
          1280.801,
          1292.001,
          1295.921,
          1301.921,
          1307.841,
          1316.961,
          1320.641,
          1324.241,
          1331.281,
          1336.801,
          1342.161,
          1347.281,
          1352.161,
          1362.881,
          1373.521,
          1394.801,
          1413.841,
          1432.801,
          1455.521,
          1491.681,
          1518.241,
          1519.681,
          1526.321,
          1528.641,
          1530.161,
          1537.681,
          1548.881,
          1550.081,
          1560.561,
          1565.761,
          1569.601,
          1572.001,
          1576.241,
          1580.801,
          1594.481,
          1602.561,
          1604.721,
          1609.921,
          1618.321,
          1622.801,
          1627.361,
          1632.401,
          1638.001,
          1644.721,
          1651.521,
          1664.881,
          1668.241,
          1676.321,
          1684.241,
          1691.761,
          1698.241,
          1704.401,
          1712.161,
          1719.681,
          1721.681,
          1725.521,
          1731.281,
          1736.161,
          1740.641,
          1747.201,
          1753.921,
          1769.121,
          1775.441,
          1781.441,
          1783.841,
          1792.481,
          1801.681,
          1818.001,
          1818.721,
          1826.321,
          1829.361,
          1834.241,
          1840.161,
          1847.041,
          1853.521,
          1856.801,
          1860.241,
          1868.961,
          1878.001,
          1886.961,
          1891.521,
          1896.161,
          1904.961,
          1909.521,
          1914.001,
          1918.321,
          1922.641,
          1937.761,
          1970.081,
          1971.361,
          2087.281,
          2092.48,
          2098.081,
          2103.601,
          2109.441,
          2115.281,
          2130.881,
          2138.801,
          2139.601,
          2146.321,
          2157.521,
          2164.881,
          2169.841,
          2174.721,
          2182.481,
          2190.241,
          2196.961,
          2206.481,
          2215.681,
          2225.921,
          2234.641,
          2238.881,
          2243.121,
          2248.721,
          2254.401,
          2266.241,
          2278.641,
          2286.081,
          2295.281,
          2300.16,
          2308.8,
          2349.6,
          2355.76,
          2362.4,
          2370,
          2377.52,
          2384.96,
          2392.4,
          2397.6,
          2402.72,
          2408.32,
          2413.84,
          2418.8,
          2423.76,
          2428.96,
          2431.6,
          2434.4,
          2440.96,
          2447.04,
          2454.32,
          2460.72,
          2466.4,
          2471.92,
          2478.96,
          2485.76,
          2492.56,
          2503.2,
          2507.2,
          2512,
          2515.6,
          2521.12,
          2526.8,
          2556.48,
          2557.76,
          2564.96,
          2576,
          2580.24,
          2584.32,
          2586.88,
          2589.52,
          2591.36,
          2596.64,
          2599.12,
          2601.68,
          2604.72,
          2607.841,
          2611.121,
          2615.281,
          2629.521,
          2633.44,
          2636.561,
          2638.801,
          2642.401,
          2646.401,
          2650.001,
          2653.601,
          2657.281,
          2660.801,
          2664.081,
          2667.521,
          2670.641,
          2674.001,
          2677.281,
          2680.641,
          2683.921,
          2687.921,
          2690.001,
          2691.761,
          2695.201,
          2699.521,
          2703.761,
          2707.201,
          2710.801,
          2713.361,
          2717.281,
          2720.961,
          2725.521,
          2727.121,
          2815.281,
          2820.961,
          2825.441,
          2828.881,
          2833.041,
          2837.201,
          2840.561,
          2850.881,
          2871.521,
          2879.601,
          2881.681,
          2885.761,
          2886.881,
          2889.601,
          2892.321,
          2895.201,
          2897.601,
          2899.601,
          2902.161,
          2905.041,
          2911.041,
          2924.481,
          2932.481,
          2937.201,
          2942.161,
          2946.001,
          2949.841,
          2952.881,
          2955.921,
          2958.001,
          2960.481,
          2963.201,
          2964.401,
          2967.121,
          2970.561,
          2973.681,
          2977.121,
          2980.401,
          2982.801,
          2985.121,
          2989.761,
          2994.961,
          3000.001,
          3004.401,
          3008.801,
          3012.561,
          3016.321,
          3022.881,
          3031.201,
          3038.961,
          3045.361,
          3050.801,
          3054.801,
          3058.641,
          3062.561,
          3066.481,
          3069.361,
          3071.601,
          3074.24,
          3077.041,
          3081.361,
          3086.961,
          3133.121,
          3139.201,
          3145.281,
          3157.681,
          3229.441,
          3238.081,
          3240.401,
          3244.081,
          3247.601,
          3250.721,
          3253.921,
          3262.081,
          3275.041,
          3279.041,
          3286.561,
          3290.24,
          3298.64,
          3302.64,
          3310.48,
          3314.16,
          3317.84,
          3321.92,
          3325.76,
          3342.321,
          3358.641,
          3365.761,
          3377.841,
          3387.921,
          3392.961,
          3394.801,
          3415.361,
          3441.121,
          3448.881,
          3453.441,
          3459.921,
          3462.641,
          3465.761,
          3469.601,
          3474.561,
          3478.081,
          3481.521,
          3502.161,
          3507.681,
          3510.721,
          3512.401,
          3515.361,
          3515.841
        ]
      },
      "geometry": {
        "type": "LineString",
        "coordinates": [
          [
            0.560605,
            50.85575,
            23.75
          ],
          [
            0.559841,
            50.855637,
            21.75
          ],
          [
            0.559536,
            50.855594,
            21.5
          ],
          [
            0.556197,
            50.855149,
            21.25
          ],
          [
            0.542823,
            50.853257,
            19.5
          ],
          [
            0.542733,
            50.853244,
            19.5
          ],
          [
            0.542407,
            50.853194,
            19.75
          ],
          [
            0.541653,
            50.853093,
            14.25
          ],
          [
            0.541269,
            50.853077,
            13.5
          ],
          [
            0.54084,
            50.853092,
            14
          ],
          [
            0.540699,
            50.853107,
            14.75
          ],
          [
            0.540453,
            50.853133,
            16
          ],
          [
            0.540069,
            50.8532,
            17
          ],
          [
            0.539779,
            50.853273,
            15
          ],
          [
            0.539541,
            50.853353,
            15
          ],
          [
            0.539306,
            50.853443,
            17.75
          ],
          [
            0.539071,
            50.853558,
            17
          ],
          [
            0.538835,
            50.853685,
            17
          ],
          [
            0.538612,
            50.853842,
            16.5
          ],
          [
            0.538414,
            50.854001,
            17.5
          ],
          [
            0.53818,
            50.854231,
            17
          ],
          [
            0.538023,
            50.854448,
            15.75
          ],
          [
            0.537901,
            50.854705,
            14.25
          ],
          [
            0.537841,
            50.854945,
            14.25
          ],
          [
            0.537816,
            50.855127,
            14.5
          ],
          [
            0.537833,
            50.855354,
            13.75
          ],
          [
            0.537881,
            50.855531,
            12.75
          ],
          [
            0.537946,
            50.855702,
            12.5
          ],
          [
            0.538258,
            50.856356,
            13.75
          ],
          [
            0.538333,
            50.856551,
            14.75
          ],
          [
            0.538376,
            50.856747,
            14.75
          ],
          [
            0.538408,
            50.856978,
            14.5
          ],
          [
            0.538423,
            50.857211,
            14.25
          ],
          [
            0.538397,
            50.857725,
            15.25
          ],
          [
            0.53831,
            50.858214,
            16
          ],
          [
            0.538133,
            50.858708,
            17.25
          ],
          [
            0.537987,
            50.85906,
            18.25
          ],
          [
            0.537784,
            50.85941,
            19
          ],
          [
            0.537342,
            50.859991,
            19.75
          ],
          [
            0.537145,
            50.860198,
            21
          ],
          [
            0.536805,
            50.86051,
            21.75
          ],
          [
            0.536371,
            50.860851,
            22.5
          ],
          [
            0.535809,
            50.86121,
            25
          ],
          [
            0.535312,
            50.861473,
            26
          ],
          [
            0.534276,
            50.861946,
            22.25
          ],
          [
            0.533265,
            50.862407,
            23
          ],
          [
            0.532771,
            50.862677,
            23.25
          ],
          [
            0.532177,
            50.863047,
            22
          ],
          [
            0.531569,
            50.86344,
            19.25
          ],
          [
            0.530841,
            50.863969,
            19.25
          ],
          [
            0.530107,
            50.864463,
            21.5
          ],
          [
            0.529435,
            50.864867,
            23.75
          ],
          [
            0.528945,
            50.865143,
            21.25
          ],
          [
            0.528644,
            50.865313,
            20.25
          ],
          [
            0.524386,
            50.867463,
            23.25
          ],
          [
            0.523728,
            50.867849,
            24.5
          ],
          [
            0.52314,
            50.868259,
            26.75
          ],
          [
            0.522586,
            50.868698,
            28
          ],
          [
            0.521845,
            50.869454,
            29
          ],
          [
            0.52126,
            50.870115,
            32.75
          ],
          [
            0.520894,
            50.870543,
            31.25
          ],
          [
            0.52061,
            50.870917,
            32.25
          ],
          [
            0.520369,
            50.871339,
            33
          ],
          [
            0.520077,
            50.872063,
            32.25
          ],
          [
            0.519977,
            50.872522,
            30.5
          ],
          [
            0.519967,
            50.872972,
            30.25
          ],
          [
            0.519982,
            50.873441,
            32
          ],
          [
            0.51998,
            50.87395,
            32.5
          ],
          [
            0.519946,
            50.874488,
            33
          ],
          [
            0.519865,
            50.874979,
            33.75
          ],
          [
            0.519747,
            50.875453,
            34.5
          ],
          [
            0.519561,
            50.876044,
            33
          ],
          [
            0.519164,
            50.876975,
            35.5
          ],
          [
            0.518872,
            50.87749,
            36.5
          ],
          [
            0.518596,
            50.877919,
            37.25
          ],
          [
            0.517203,
            50.879947,
            41.25
          ],
          [
            0.516822,
            50.880445,
            43.75
          ],
          [
            0.516509,
            50.880779,
            44.25
          ],
          [
            0.515932,
            50.881314,
            42
          ],
          [
            0.513811,
            50.883249,
            46.75
          ],
          [
            0.512807,
            50.884145,
            46.5
          ],
          [
            0.512226,
            50.884603,
            47
          ],
          [
            0.511646,
            50.885014,
            44.5
          ],
          [
            0.511023,
            50.885411,
            42.5
          ],
          [
            0.510354,
            50.885796,
            43.25
          ],
          [
            0.509759,
            50.886102,
            44.25
          ],
          [
            0.509127,
            50.886396,
            44.75
          ],
          [
            0.508283,
            50.886755,
            46.25
          ],
          [
            0.507369,
            50.887084,
            46.5
          ],
          [
            0.506787,
            50.887275,
            45.25
          ],
          [
            0.506187,
            50.887451,
            44.75
          ],
          [
            0.505127,
            50.887757,
            45.75
          ],
          [
            0.503936,
            50.888084,
            49.25
          ],
          [
            0.502114,
            50.88855,
            50.25
          ],
          [
            0.500213,
            50.889042,
            47.5
          ],
          [
            0.499594,
            50.889161,
            50.25
          ],
          [
            0.49891,
            50.889243,
            54.25
          ],
          [
            0.497949,
            50.88934,
            57.25
          ],
          [
            0.497094,
            50.889497,
            56.25
          ],
          [
            0.4963,
            50.889698,
            55.25
          ],
          [
            0.495626,
            50.889894,
            58
          ],
          [
            0.494872,
            50.890157,
            56.25
          ],
          [
            0.494224,
            50.890426,
            55.5
          ],
          [
            0.493174,
            50.890876,
            57.75
          ],
          [
            0.492731,
            50.891118,
            57.25
          ],
          [
            0.491811,
            50.891687,
            57.5
          ],
          [
            0.491134,
            50.892213,
            58
          ],
          [
            0.490779,
            50.892572,
            59.25
          ],
          [
            0.490397,
            50.892991,
            60.5
          ],
          [
            0.490072,
            50.893439,
            60.25
          ],
          [
            0.48975,
            50.894083,
            59.5
          ],
          [
            0.489609,
            50.894583,
            58
          ],
          [
            0.489536,
            50.895111,
            57
          ],
          [
            0.489556,
            50.895921,
            55.5
          ],
          [
            0.489758,
            50.898767,
            60.5
          ],
          [
            0.489935,
            50.901048,
            57
          ],
          [
            0.48995,
            50.901497,
            57.25
          ],
          [
            0.489945,
            50.901945,
            58
          ],
          [
            0.489854,
            50.902875,
            58.5
          ],
          [
            0.489794,
            50.903268,
            60.5
          ],
          [
            0.489764,
            50.903663,
            61.75
          ],
          [
            0.489787,
            50.904088,
            63
          ],
          [
            0.489857,
            50.904501,
            63.75
          ],
          [
            0.490373,
            50.906523,
            62.5
          ],
          [
            0.490564,
            50.907048,
            59.75
          ],
          [
            0.490789,
            50.90756,
            59.25
          ],
          [
            0.491316,
            50.908553,
            62.5
          ],
          [
            0.49199,
            50.909573,
            64.5
          ],
          [
            0.492608,
            50.910339,
            64.5
          ],
          [
            0.493915,
            50.911784,
            61.25
          ],
          [
            0.494986,
            50.912931,
            58.25
          ],
          [
            0.49542,
            50.913394,
            56.5
          ],
          [
            0.495641,
            50.91365,
            56
          ],
          [
            0.49585,
            50.913915,
            55.75
          ],
          [
            0.496131,
            50.914276,
            55.75
          ],
          [
            0.49652,
            50.914849,
            55.5
          ],
          [
            0.496684,
            50.915109,
            55.75
          ],
          [
            0.497063,
            50.915781,
            56.25
          ],
          [
            0.49736,
            50.916409,
            53.75
          ],
          [
            0.497863,
            50.917531,
            49.75
          ],
          [
            0.498712,
            50.919464,
            46.75
          ],
          [
            0.499629,
            50.921489,
            51
          ],
          [
            0.499918,
            50.92216,
            50
          ],
          [
            0.500654,
            50.923867,
            49
          ],
          [
            0.501134,
            50.924956,
            43.25
          ],
          [
            0.50129,
            50.925339,
            43
          ],
          [
            0.501419,
            50.925691,
            43.75
          ],
          [
            0.501538,
            50.926052,
            42.75
          ],
          [
            0.501767,
            50.926818,
            42.75
          ],
          [
            0.501883,
            50.927495,
            43.75
          ],
          [
            0.501965,
            50.928756,
            45.25
          ],
          [
            0.501935,
            50.929326,
            44
          ],
          [
            0.50177,
            50.93057,
            46.25
          ],
          [
            0.501464,
            50.93166,
            43.5
          ],
          [
            0.501275,
            50.932123,
            41.5
          ],
          [
            0.501171,
            50.932379,
            40.5
          ],
          [
            0.501025,
            50.932735,
            39
          ],
          [
            0.500599,
            50.933568,
            38.25
          ],
          [
            0.500091,
            50.934382,
            39.25
          ],
          [
            0.498924,
            50.935956,
            37.25
          ],
          [
            0.498253,
            50.936958,
            33.5
          ],
          [
            0.497933,
            50.937469,
            27.5
          ],
          [
            0.497723,
            50.937849,
            27.75
          ],
          [
            0.497647,
            50.938007,
            30.5
          ],
          [
            0.497286,
            50.938937,
            31.75
          ],
          [
            0.497101,
            50.93944,
            31.25
          ],
          [
            0.496865,
            50.939937,
            33
          ],
          [
            0.496603,
            50.940436,
            35.25
          ],
          [
            0.496305,
            50.94093,
            36.5
          ],
          [
            0.495962,
            50.941456,
            36.5
          ],
          [
            0.495583,
            50.941981,
            35.75
          ],
          [
            0.495168,
            50.942509,
            36.75
          ],
          [
            0.494715,
            50.943012,
            35.5
          ],
          [
            0.494273,
            50.943489,
            33.75
          ],
          [
            0.493765,
            50.943966,
            31.75
          ],
          [
            0.493261,
            50.944414,
            32.75
          ],
          [
            0.489948,
            50.947058,
            34
          ],
          [
            0.487888,
            50.948665,
            34.25
          ],
          [
            0.487402,
            50.948984,
            35.25
          ],
          [
            0.486895,
            50.94929,
            36.5
          ],
          [
            0.486327,
            50.949585,
            38.5
          ],
          [
            0.485678,
            50.949868,
            40.75
          ],
          [
            0.484274,
            50.950398,
            41.75
          ],
          [
            0.483414,
            50.950632,
            39.5
          ],
          [
            0.482073,
            50.950902,
            38.75
          ],
          [
            0.481392,
            50.950993,
            39.25
          ],
          [
            0.480619,
            50.951068,
            39
          ],
          [
            0.478961,
            50.951139,
            38.5
          ],
          [
            0.473866,
            50.951261,
            40.25
          ],
          [
            0.473077,
            50.951317,
            42.25
          ],
          [
            0.472349,
            50.951406,
            41.5
          ],
          [
            0.471083,
            50.951669,
            42.75
          ],
          [
            0.470394,
            50.951827,
            40.25
          ],
          [
            0.469787,
            50.95201,
            42.75
          ],
          [
            0.468992,
            50.952311,
            45
          ],
          [
            0.468461,
            50.952534,
            46
          ],
          [
            0.467981,
            50.952777,
            46.5
          ],
          [
            0.467344,
            50.953134,
            49
          ],
          [
            0.466828,
            50.953512,
            48.25
          ],
          [
            0.466321,
            50.953881,
            47.5
          ],
          [
            0.466106,
            50.954051,
            47.25
          ],
          [
            0.465902,
            50.954256,
            46.75
          ],
          [
            0.465185,
            50.955167,
            45.5
          ],
          [
            0.464321,
            50.956303,
            43.75
          ],
          [
            0.464036,
            50.956704,
            43
          ],
          [
            0.463619,
            50.957321,
            42.25
          ],
          [
            0.463237,
            50.957939,
            42.25
          ],
          [
            0.46277,
            50.958925,
            38.25
          ],
          [
            0.462623,
            50.959329,
            39.5
          ],
          [
            0.462536,
            50.959728,
            38.25
          ],
          [
            0.462423,
            50.960517,
            36.75
          ],
          [
            0.462432,
            50.961134,
            37.5
          ],
          [
            0.462503,
            50.961739,
            35.75
          ],
          [
            0.462604,
            50.96231,
            35.5
          ],
          [
            0.462753,
            50.962847,
            35
          ],
          [
            0.463118,
            50.964025,
            31.75
          ],
          [
            0.463449,
            50.965203,
            29.5
          ],
          [
            0.464159,
            50.967553,
            26.25
          ],
          [
            0.464828,
            50.969649,
            25
          ],
          [
            0.465448,
            50.971744,
            19
          ],
          [
            0.466227,
            50.974245,
            16.5
          ],
          [
            0.467472,
            50.978231,
            18.5
          ],
          [
            0.46831,
            50.981172,
            15.5
          ],
          [
            0.468352,
            50.981329,
            15.75
          ],
          [
            0.468521,
            50.982068,
            14.75
          ],
          [
            0.468556,
            50.982329,
            15.5
          ],
          [
            0.46858,
            50.982501,
            15.75
          ],
          [
            0.468686,
            50.983346,
            16
          ],
          [
            0.468702,
            50.9846,
            17.5
          ],
          [
            0.468704,
            50.984735,
            17.5
          ],
          [
            0.468702,
            50.985915,
            18.5
          ],
          [
            0.468659,
            50.986503,
            18.25
          ],
          [
            0.468598,
            50.986935,
            17.25
          ],
          [
            0.468551,
            50.987205,
            17.5
          ],
          [
            0.468448,
            50.987675,
            16.75
          ],
          [
            0.468317,
            50.988185,
            16.25
          ],
          [
            0.467809,
            50.989692,
            15.25
          ],
          [
            0.467472,
            50.990579,
            15.25
          ],
          [
            0.46738,
            50.990813,
            13
          ],
          [
            0.467118,
            50.991378,
            14.25
          ],
          [
            0.466633,
            50.992274,
            16.5
          ],
          [
            0.46632,
            50.992738,
            18
          ],
          [
            0.465978,
            50.9932,
            18.75
          ],
          [
            0.465578,
            50.99371,
            17.5
          ],
          [
            0.465081,
            50.994259,
            18
          ],
          [
            0.464475,
            50.994906,
            16.5
          ],
          [
            0.463822,
            50.995545,
            13.75
          ],
          [
            0.462462,
            50.996774,
            12.5
          ],
          [
            0.462112,
            50.997076,
            12
          ],
          [
            0.461283,
            50.997821,
            13.25
          ],
          [
            0.460461,
            50.998543,
            13
          ],
          [
            0.459687,
            50.999236,
            13.25
          ],
          [
            0.458977,
            50.999805,
            13
          ],
          [
            0.458271,
            51.000333,
            13.5
          ],
          [
            0.457326,
            51.000969,
            13.5
          ],
          [
            0.456362,
            51.001562,
            14
          ],
          [
            0.456104,
            51.001712,
            14.5
          ],
          [
            0.4556,
            51.002005,
            13.75
          ],
          [
            0.454854,
            51.002454,
            14.25
          ],
          [
            0.454245,
            51.002842,
            14
          ],
          [
            0.453718,
            51.003218,
            15
          ],
          [
            0.452999,
            51.003798,
            14.75
          ],
          [
            0.452341,
            51.004426,
            14.5
          ],
          [
            0.450989,
            51.005904,
            15
          ],
          [
            0.450359,
            51.00649,
            15.25
          ],
          [
            0.449713,
            51.007023,
            16
          ],
          [
            0.449437,
            51.007224,
            16.75
          ],
          [
            0.4484,
            51.007942,
            21.25
          ],
          [
            0.447169,
            51.008622,
            19.25
          ],
          [
            0.444795,
            51.009676,
            16
          ],
          [
            0.444684,
            51.009724,
            16
          ],
          [
            0.443571,
            51.01021,
            17
          ],
          [
            0.443109,
            51.010395,
            17.25
          ],
          [
            0.442373,
            51.010682,
            17.25
          ],
          [
            0.441469,
            51.011025,
            17.5
          ],
          [
            0.440396,
            51.011403,
            17.75
          ],
          [
            0.439365,
            51.011733,
            18
          ],
          [
            0.438831,
            51.01189,
            19
          ],
          [
            0.43827,
            51.012035,
            20.25
          ],
          [
            0.436833,
            51.012407,
            21.5
          ],
          [
            0.435318,
            51.012742,
            18.25
          ],
          [
            0.433786,
            51.013034,
            17.75
          ],
          [
            0.433004,
            51.013163,
            17
          ],
          [
            0.432199,
            51.013282,
            17.75
          ],
          [
            0.430662,
            51.013462,
            17
          ],
          [
            0.429862,
            51.01354,
            17.25
          ],
          [
            0.429076,
            51.013602,
            18.75
          ],
          [
            0.428313,
            51.013652,
            18.75
          ],
          [
            0.427539,
            51.013686,
            19.5
          ],
          [
            0.42485,
            51.013743,
            19.5
          ],
          [
            0.419084,
            51.013735,
            19
          ],
          [
            0.418857,
            51.013738,
            19
          ],
          [
            0.398193,
            51.013795,
            29.75
          ],
          [
            0.397266,
            51.013793,
            30
          ],
          [
            0.396272,
            51.013798,
            30.5
          ],
          [
            0.395288,
            51.013794,
            26.75
          ],
          [
            0.394243,
            51.013762,
            31.75
          ],
          [
            0.39321,
            51.013721,
            31.75
          ],
          [
            0.390451,
            51.013526,
            32.75
          ],
          [
            0.389044,
            51.013444,
            34.75
          ],
          [
            0.388896,
            51.013441,
            34.75
          ],
          [
            0.387696,
            51.013413,
            36.5
          ],
          [
            0.385697,
            51.013431,
            39.5
          ],
          [
            0.384384,
            51.013488,
            34.25
          ],
          [
            0.3835,
            51.013538,
            36.25
          ],
          [
            0.382633,
            51.013607,
            37.75
          ],
          [
            0.381261,
            51.013741,
            40.75
          ],
          [
            0.379906,
            51.013937,
            39.75
          ],
          [
            0.378737,
            51.014118,
            39.25
          ],
          [
            0.377102,
            51.014414,
            38.25
          ],
          [
            0.375575,
            51.014779,
            40
          ],
          [
            0.373892,
            51.015228,
            42
          ],
          [
            0.372495,
            51.015651,
            38.75
          ],
          [
            0.371829,
            51.015871,
            41.25
          ],
          [
            0.37118,
            51.016107,
            42.5
          ],
          [
            0.370334,
            51.016439,
            44.25
          ],
          [
            0.369486,
            51.016788,
            47.25
          ],
          [
            0.367774,
            51.01756,
            49.25
          ],
          [
            0.366071,
            51.018455,
            48.25
          ],
          [
            0.365093,
            51.019025,
            51
          ],
          [
            0.363962,
            51.019777,
            48.25
          ],
          [
            0.363376,
            51.020183,
            47.25
          ],
          [
            0.36237,
            51.020922,
            50.25
          ],
          [
            0.357674,
            51.024419,
            51.75
          ],
          [
            0.356954,
            51.024947,
            54.25
          ],
          [
            0.356199,
            51.025516,
            55.25
          ],
          [
            0.355372,
            51.026194,
            56.5
          ],
          [
            0.354637,
            51.026902,
            58.25
          ],
          [
            0.353967,
            51.027628,
            58.75
          ],
          [
            0.353237,
            51.028329,
            56.5
          ],
          [
            0.352683,
            51.028795,
            54
          ],
          [
            0.3521,
            51.029235,
            54
          ],
          [
            0.35144,
            51.029703,
            55.75
          ],
          [
            0.350745,
            51.030142,
            54.75
          ],
          [
            0.350078,
            51.030503,
            56.5
          ],
          [
            0.349379,
            51.030845,
            58.75
          ],
          [
            0.348621,
            51.031174,
            59.25
          ],
          [
            0.348222,
            51.031335,
            60.75
          ],
          [
            0.347806,
            51.031513,
            62.75
          ],
          [
            0.346858,
            51.031948,
            60.25
          ],
          [
            0.346028,
            51.032394,
            63.25
          ],
          [
            0.345102,
            51.032962,
            63.5
          ],
          [
            0.344344,
            51.033505,
            64.75
          ],
          [
            0.343724,
            51.034009,
            66
          ],
          [
            0.34318,
            51.03453,
            66
          ],
          [
            0.342551,
            51.035219,
            63.25
          ],
          [
            0.342025,
            51.035911,
            67
          ],
          [
            0.341586,
            51.036624,
            69.25
          ],
          [
            0.341011,
            51.037762,
            65.5
          ],
          [
            0.340762,
            51.038182,
            64.75
          ],
          [
            0.340427,
            51.038675,
            64.25
          ],
          [
            0.340141,
            51.03904,
            64.75
          ],
          [
            0.339679,
            51.039588,
            67.25
          ],
          [
            0.339167,
            51.040139,
            70
          ],
          [
            0.336443,
            51.042999,
            71.5
          ],
          [
            0.336323,
            51.043119,
            70.25
          ],
          [
            0.335669,
            51.04381,
            78.5
          ],
          [
            0.334653,
            51.044871,
            82.25
          ],
          [
            0.334226,
            51.045267,
            80
          ],
          [
            0.333777,
            51.045626,
            76.75
          ],
          [
            0.333478,
            51.045846,
            76
          ],
          [
            0.333153,
            51.046064,
            73.5
          ],
          [
            0.332918,
            51.046205,
            72.75
          ],
          [
            0.332209,
            51.046597,
            74.25
          ],
          [
            0.331865,
            51.046767,
            73.25
          ],
          [
            0.331494,
            51.04693,
            77.25
          ],
          [
            0.331032,
            51.047111,
            75.75
          ],
          [
            0.330535,
            51.047268,
            80.5
          ],
          [
            0.329995,
            51.047416,
            83.25
          ],
          [
            0.329296,
            51.04757,
            86.75
          ],
          [
            0.326886,
            51.048073,
            82.5
          ],
          [
            0.32623,
            51.048219,
            79
          ],
          [
            0.32572,
            51.048352,
            82
          ],
          [
            0.325358,
            51.04846,
            79
          ],
          [
            0.3248,
            51.048662,
            82.5
          ],
          [
            0.32421,
            51.04891,
            83.5
          ],
          [
            0.323715,
            51.049165,
            83.75
          ],
          [
            0.323265,
            51.049449,
            85.5
          ],
          [
            0.322832,
            51.049764,
            87
          ],
          [
            0.322469,
            51.050091,
            89
          ],
          [
            0.322157,
            51.050406,
            90.75
          ],
          [
            0.321879,
            51.050752,
            91
          ],
          [
            0.321651,
            51.051068,
            90.25
          ],
          [
            0.321449,
            51.051428,
            91.75
          ],
          [
            0.321293,
            51.051779,
            91.25
          ],
          [
            0.321184,
            51.052146,
            91
          ],
          [
            0.321115,
            51.052511,
            90
          ],
          [
            0.321093,
            51.052958,
            89.75
          ],
          [
            0.321093,
            51.053194,
            90
          ],
          [
            0.321117,
            51.053392,
            90
          ],
          [
            0.321211,
            51.053774,
            92.5
          ],
          [
            0.321358,
            51.054253,
            91.5
          ],
          [
            0.321559,
            51.054712,
            92.25
          ],
          [
            0.32171,
            51.055087,
            92.25
          ],
          [
            0.321839,
            51.055481,
            93.25
          ],
          [
            0.321893,
            51.05577,
            93.5
          ],
          [
            0.321893,
            51.056211,
            95
          ],
          [
            0.321872,
            51.056626,
            96.5
          ],
          [
            0.321814,
            51.05714,
            99
          ],
          [
            0.321782,
            51.057319,
            104
          ],
          [
            0.319074,
            51.067075,
            113.5
          ],
          [
            0.318852,
            51.067697,
            105.25
          ],
          [
            0.318643,
            51.068185,
            106.75
          ],
          [
            0.318464,
            51.068555,
            107.75
          ],
          [
            0.318193,
            51.068992,
            108
          ],
          [
            0.317832,
            51.069404,
            106.5
          ],
          [
            0.317504,
            51.069724,
            105
          ],
          [
            0.316388,
            51.070649,
            105.5
          ],
          [
            0.314125,
            51.072477,
            105.25
          ],
          [
            0.313234,
            51.073196,
            106.25
          ],
          [
            0.313003,
            51.073383,
            107.75
          ],
          [
            0.31253,
            51.073734,
            110
          ],
          [
            0.312387,
            51.073821,
            109.5
          ],
          [
            0.312039,
            51.074032,
            110.75
          ],
          [
            0.311658,
            51.074227,
            109.25
          ],
          [
            0.311235,
            51.074416,
            107.5
          ],
          [
            0.310862,
            51.074547,
            109.25
          ],
          [
            0.310548,
            51.074646,
            108.25
          ],
          [
            0.310123,
            51.074759,
            107.75
          ],
          [
            0.309645,
            51.07487,
            109.5
          ],
          [
            0.308635,
            51.075078,
            109.25
          ],
          [
            0.306368,
            51.075561,
            104
          ],
          [
            0.305016,
            51.075844,
            101.75
          ],
          [
            0.304253,
            51.076058,
            100.25
          ],
          [
            0.303486,
            51.076332,
            99
          ],
          [
            0.302907,
            51.076568,
            97.5
          ],
          [
            0.30238,
            51.076839,
            96.75
          ],
          [
            0.301986,
            51.077068,
            96.25
          ],
          [
            0.301621,
            51.077315,
            97
          ],
          [
            0.301373,
            51.077493,
            98.5
          ],
          [
            0.301099,
            51.077717,
            97.5
          ],
          [
            0.300841,
            51.077979,
            94.5
          ],
          [
            0.300728,
            51.078096,
            95.25
          ],
          [
            0.300498,
            51.078369,
            98.5
          ],
          [
            0.300254,
            51.078721,
            99.25
          ],
          [
            0.300064,
            51.079053,
            99.5
          ],
          [
            0.299889,
            51.079423,
            100.5
          ],
          [
            0.299763,
            51.079786,
            99.25
          ],
          [
            0.2997,
            51.080053,
            98
          ],
          [
            0.299657,
            51.080315,
            97.75
          ],
          [
            0.299652,
            51.080836,
            97.25
          ],
          [
            0.299729,
            51.081417,
            97
          ],
          [
            0.29991,
            51.081976,
            95.75
          ],
          [
            0.300139,
            51.082445,
            95.75
          ],
          [
            0.300467,
            51.082897,
            94.5
          ],
          [
            0.300773,
            51.083275,
            93
          ],
          [
            0.301149,
            51.08363,
            92.5
          ],
          [
            0.301907,
            51.084196,
            92
          ],
          [
            0.303011,
            51.084822,
            93
          ],
          [
            0.303907,
            51.085485,
            90.5
          ],
          [
            0.304519,
            51.086087,
            91
          ],
          [
            0.30489,
            51.086654,
            91.25
          ],
          [
            0.305144,
            51.087076,
            90
          ],
          [
            0.305325,
            51.087494,
            89
          ],
          [
            0.30544,
            51.087927,
            87.75
          ],
          [
            0.305509,
            51.088361,
            87.75
          ],
          [
            0.305525,
            51.088684,
            87
          ],
          [
            0.305511,
            51.088938,
            86.75
          ],
          [
            0.305466,
            51.089229,
            86
          ],
          [
            0.305402,
            51.089539,
            86
          ],
          [
            0.305257,
            51.090019,
            88.25
          ],
          [
            0.304949,
            51.090621,
            88.75
          ],
          [
            0.301837,
            51.095426,
            94.75
          ],
          [
            0.301361,
            51.096041,
            96.75
          ],
          [
            0.300866,
            51.096651,
            99
          ],
          [
            0.299781,
            51.09787,
            102
          ],
          [
            0.293574,
            51.104922,
            100.75
          ],
          [
            0.292813,
            51.105768,
            98
          ],
          [
            0.292604,
            51.105998,
            97.5
          ],
          [
            0.292275,
            51.106351,
            98.5
          ],
          [
            0.291937,
            51.106681,
            98.75
          ],
          [
            0.291621,
            51.106974,
            98.5
          ],
          [
            0.291269,
            51.10726,
            99.25
          ],
          [
            0.290346,
            51.107974,
            97.5
          ],
          [
            0.288835,
            51.10908,
            94.25
          ],
          [
            0.288387,
            51.109431,
            95.75
          ],
          [
            0.287577,
            51.110109,
            95.5
          ],
          [
            0.287202,
            51.110448,
            97
          ],
          [
            0.2864,
            51.111245,
            99.25
          ],
          [
            0.286047,
            51.111635,
            100
          ],
          [
            0.285384,
            51.112408,
            103.25
          ],
          [
            0.285049,
            51.11276,
            103.25
          ],
          [
            0.284697,
            51.113105,
            104.75
          ],
          [
            0.284283,
            51.113479,
            106.75
          ],
          [
            0.283879,
            51.113828,
            106.5
          ],
          [
            0.2821,
            51.115313,
            106.25
          ],
          [
            0.280327,
            51.116768,
            105.25
          ],
          [
            0.279577,
            51.117415,
            105.75
          ],
          [
            0.278258,
            51.118488,
            107.5
          ],
          [
            0.277033,
            51.119323,
            108.75
          ],
          [
            0.276403,
            51.119733,
            104.5
          ],
          [
            0.276154,
            51.119874,
            111.5
          ],
          [
            0.273271,
            51.121311,
            112.25
          ],
          [
            0.269665,
            51.123114,
            99.5
          ],
          [
            0.268567,
            51.123642,
            97
          ],
          [
            0.267963,
            51.123992,
            96.25
          ],
          [
            0.267183,
            51.124531,
            96.25
          ],
          [
            0.266873,
            51.124766,
            95.25
          ],
          [
            0.266503,
            51.12503,
            95.75
          ],
          [
            0.266074,
            51.125372,
            94.5
          ],
          [
            0.265623,
            51.125852,
            93.75
          ],
          [
            0.265335,
            51.126199,
            95.25
          ],
          [
            0.265099,
            51.126555,
            103.5
          ],
          [
            0.263638,
            51.128681,
            96.25
          ],
          [
            0.263223,
            51.129245,
            91.5
          ],
          [
            0.263068,
            51.129572,
            90.5
          ],
          [
            0.263028,
            51.12976,
            90
          ],
          [
            0.262996,
            51.130096,
            90.25
          ],
          [
            0.263,
            51.130152,
            91.5
          ]
        ]
      }
    }
  ]
}