{
  "type": "FeatureCollection",
  "features": [
    {
      "type": "Feature",
      "properties": {
        "creator": "BRouter-1.7.9",
        "name": "TunbridgeWellsWest-Eridge (8km)",
        "track-length": "8032",
        "filtered ascend": "11",
        "plain-ascend": "-23",
        "total-time": "643",
        "total-energy": "331381",
        "cost": "8032",
        "messages": [
          [
            "Longitude",
            "Latitude",
            "Elevation",
            "Distance",
            "CostPerKm",
            "ElevCost",
            "TurnCost",
            "NodeCost",
            "InitialCost",
            "WayTags",
            "NodeTags",
            "Time",
            "Energy"
          ],
          [
            "251274",
            "51123502",
            "78",
            "90",
            "1000",
            "0",
            "0",
            "0",
            "0",
            "railway=rail",
            "railway=switch",
            "7",
            "3625"
          ],
          [
            "250328",
            "51123450",
            "76",
            "67",
            "1000",
            "0",
            "0",
            "0",
            "0",
            "railway=rail",
            "railway=switch",
            "12",
            "5571"
          ],
          [
            "249751",
            "51123383",
            "78",
            "41",
            "1000",
            "0",
            "0",
            "0",
            "0",
            "railway=rail",
            "railway=switch",
            "15",
            "7378"
          ],
          [
            "204847",
            "51117713",
            "53",
            "3361",
            "1000",
            "0",
            "0",
            "0",
            "0",
            "railway=rail",
            "railway=level_crossing",
            "284",
            "135770"
          ],
          [
            "187592",
            "51111813",
            "59",
            "1407",
            "1000",
            "0",
            "0",
            "0",
            "0",
            "railway=rail",
            "railway=switch",
            "397",
            "197671"
          ],
          [
            "186317",
            "51110046",
            "59",
            "215",
            "1000",
            "0",
            "0",
            "0",
            "0",
            "railway=rail",
            "railway=switch",
            "414",
            "208958"
          ],
          [
            "186074",
            "51109301",
            "57",
            "85",
            "1000",
            "0",
            "0",
            "0",
            "0",
            "reversedirection=yes railway=rail",
            "railway=switch",
            "421",
            "212034"
          ],
          [
            "184949",
            "51099536",
            "50",
            "1089",
            "1000",
            "0",
            "0",
            "0",
            "0",
            "reversedirection=yes railway=rail",
            "barrier=swing_gate",
            "508",
            "253173"
          ],
          [
            "186708",
            "51096132",
            "50",
            "407",
            "1000",
            "0",
            "0",
            "0",
            "0",
            "reversedirection=yes railway=rail",
            "railway=level_crossing",
            "540",
            "271140"
          ],
          [
            "199173",
            "51090020",
            "54",
            "1118",
            "1000",
            "0",
            "0",
            "0",
            "0",
            "reversedirection=yes railway=rail",
            "railway=switch",
            "630",
            "323708"
          ],
          [
            "200967",
            "51089252",
            "55",
            "152",
            "1000",
            "0",
            "0",
            "0",
            "0",
            "reversedirection=yes railway=rail",
            "",
            "642",
            "331381"
          ]
        ],
        "times": [
          0,
          6.08,
          7.2,
          7.92,
          8.88,
          12.56,
          15.84,
          25.68,
          26.64,
          37.12,
          41.04,
          46.96,
          54.16,
          61.04,
          73.36,
          86.4,
          97.28,
          102.4,
          102.88,
          107.92,
          117.44,
          126.56,
          133.04,
          137.44,
          141.6,
          144.4,
          147.12,
          152.16,
          154.64,
          156.8,
          161.44,
          166.4,
          167.2,
          175.92,
          183.2,
          191.44,
          199.2,
          204.16,
          210,
          216.88,
          222.88,
          226.32,
          233.84,
          240.64,
          242,
          250.08,
          257.6,
          267.12,
          275.6,
          280.56,
          284.72,
          291.44,
          305.52,
          320.32,
          342.56,
          350.56,
          355.6,
          359.12,
          360.88,
          373.12,
          386.32,
          388.08,
          397.28,
          399.52,
          404.16,
          409.52,
          414.48,
          421.28,
          428.24,
          438.16,
          463.92,
          475.36,
          493.28,
          508.4,
          510.08,
          511.92,
          514.48,
          516,
          519.84,
          522.56,
          527.2,
          529.52,
          531.84,
          536.4,
          538.72,
          540.96,
          542.24,
          542.8,
          544.8,
          546.96,
          548.08,
          552.56,
          555.44,
          558,
          559.84,
          562,
          566.48,
          570.96,
          572.32,
          575.52,
          579.2,
          582.88,
          586.4,
          593.68,
          597.52,
          601.28,
          604.88,
          608.72,
          612.4,
          615.92,
          619.76,
          623.2,
          626.24,
          627.28,
          630.4,
          642.56
        ]
      },
      "geometry": {
        "type": "LineString",
        "coordinates": [
          [
            0.25255,
            51.123593,
            80
          ],
          [
            0.251474,
            51.123516,
            79.75
          ],
          [
            0.251274,
            51.123502,
            78
          ],
          [
            0.251154,
            51.123478,
            76
          ],
          [
            0.250988,
            51.123473,
            76
          ],
          [
            0.250328,
            51.12345,
            76.75
          ],
          [
            0.249751,
            51.123383,
            78.5
          ],
          [
            0.248005,
            51.123264,
            74.75
          ],
          [
            0.24783,
            51.123254,
            74.5
          ],
          [
            0.24596,
            51.123192,
            72
          ],
          [
            0.245264,
            51.123193,
            72
          ],
          [
            0.244216,
            51.123255,
            72.25
          ],
          [
            0.242942,
            51.123347,
            73
          ],
          [
            0.241716,
            51.123444,
            71.5
          ],
          [
            0.239536,
            51.123662,
            71.25
          ],
          [
            0.237225,
            51.123876,
            69
          ],
          [
            0.235304,
            51.124045,
            66.5
          ],
          [
            0.234391,
            51.124118,
            65.25
          ],
          [
            0.234299,
            51.124125,
            65.5
          ],
          [
            0.233407,
            51.124197,
            66.25
          ],
          [
            0.231706,
            51.124199,
            67
          ],
          [
            0.230085,
            51.124127,
            63.25
          ],
          [
            0.228931,
            51.124032,
            66.5
          ],
          [
            0.228167,
            51.123914,
            64
          ],
          [
            0.22747,
            51.123746,
            65.25
          ],
          [
            0.227014,
            51.123619,
            63.25
          ],
          [
            0.226583,
            51.123471,
            69
          ],
          [
            0.2258,
            51.123188,
            66.75
          ],
          [
            0.225438,
            51.123031,
            64.75
          ],
          [
            0.225145,
            51.12288,
            65.5
          ],
          [
            0.224528,
            51.122528,
            63
          ],
          [
            0.223924,
            51.122115,
            59.75
          ],
          [
            0.223834,
            51.122051,
            59.25
          ],
          [
            0.222718,
            51.121372,
            62.75
          ],
          [
            0.221661,
            51.120889,
            62.75
          ],
          [
            0.220365,
            51.120449,
            61.75
          ],
          [
            0.219049,
            51.12018,
            60.25
          ],
          [
            0.218179,
            51.120068,
            59.75
          ],
          [
            0.217143,
            51.120015,
            61.5
          ],
          [
            0.215924,
            51.120069,
            65
          ],
          [
            0.214866,
            51.120191,
            66.75
          ],
          [
            0.21425,
            51.120195,
            65.5
          ],
          [
            0.212907,
            51.120171,
            61.75
          ],
          [
            0.211707,
            51.120041,
            58
          ],
          [
            0.211463,
            51.120011,
            57.25
          ],
          [
            0.210078,
            51.119765,
            56.75
          ],
          [
            0.208835,
            51.119437,
            55.25
          ],
          [
            0.207371,
            51.118887,
            54
          ],
          [
            0.206163,
            51.118317,
            53.25
          ],
          [
            0.205471,
            51.117973,
            53.5
          ],
          [
            0.204847,
            51.117713,
            53.25
          ],
          [
            0.203849,
            51.117297,
            51.5
          ],
          [
            0.20154,
            51.116667,
            50.75
          ],
          [
            0.199015,
            51.116173,
            50.75
          ],
          [
            0.195198,
            51.115489,
            54
          ],
          [
            0.193851,
            51.115186,
            50.25
          ],
          [
            0.193031,
            51.114955,
            53
          ],
          [
            0.192475,
            51.114771,
            53.5
          ],
          [
            0.192207,
            51.114668,
            53.5
          ],
          [
            0.190544,
            51.113778,
            55.5
          ],
          [
            0.188781,
            51.112794,
            56.25
          ],
          [
            0.188566,
            51.112647,
            58.25
          ],
          [
            0.187592,
            51.111813,
            59.5
          ],
          [
            0.18737,
            51.1116,
            60.25
          ],
          [
            0.18703,
            51.11112,
            60.25
          ],
          [
            0.186624,
            51.110571,
            59.5
          ],
          [
            0.186317,
            51.110046,
            59
          ],
          [
            0.186074,
            51.109301,
            57.25
          ],
          [
            0.185874,
            51.108531,
            55.5
          ],
          [
            0.185768,
            51.10742,
            50.5
          ],
          [
            0.185455,
            51.104528,
            48.25
          ],
          [
            0.185333,
            51.103246,
            48
          ],
          [
            0.185112,
            51.101236,
            48
          ],
          [
            0.184949,
            51.099536,
            50
          ],
          [
            0.184929,
            51.099345,
            49.75
          ],
          [
            0.184925,
            51.099142,
            49.5
          ],
          [
            0.184961,
            51.098855,
            49.5
          ],
          [
            0.185,
            51.098683,
            50.5
          ],
          [
            0.185131,
            51.098262,
            51.25
          ],
          [
            0.185259,
            51.097971,
            51.75
          ],
          [
            0.185537,
            51.097483,
            52.5
          ],
          [
            0.185686,
            51.097244,
            50.25
          ],
          [
            0.185866,
            51.097005,
            49.75
          ],
          [
            0.186257,
            51.09656,
            49.25
          ],
          [
            0.186479,
            51.09634,
            49.75
          ],
          [
            0.186708,
            51.096132,
            50.75
          ],
          [
            0.186847,
            51.096023,
            50
          ],
          [
            0.186907,
            51.095974,
            49.75
          ],
          [
            0.187143,
            51.095801,
            49.75
          ],
          [
            0.187404,
            51.095622,
            50.25
          ],
          [
            0.187539,
            51.095533,
            50.5
          ],
          [
            0.188123,
            51.095192,
            50.5
          ],
          [
            0.188534,
            51.094998,
            50.75
          ],
          [
            0.188909,
            51.094838,
            50.5
          ],
          [
            0.189191,
            51.09473,
            51.75
          ],
          [
            0.189532,
            51.09461,
            50.75
          ],
          [
            0.190251,
            51.094389,
            51
          ],
          [
            0.19095,
            51.094149,
            51.5
          ],
          [
            0.191163,
            51.094072,
            50
          ],
          [
            0.191651,
            51.093892,
            52.75
          ],
          [
            0.192203,
            51.09367,
            52.25
          ],
          [
            0.19274,
            51.093428,
            52
          ],
          [
            0.193238,
            51.093194,
            53.5
          ],
          [
            0.194226,
            51.09267,
            55
          ],
          [
            0.194718,
            51.092374,
            56
          ],
          [
            0.195173,
            51.092069,
            55.5
          ],
          [
            0.195599,
            51.091765,
            55
          ],
          [
            0.196085,
            51.091463,
            54.5
          ],
          [
            0.196571,
            51.091186,
            55.25
          ],
          [
            0.197066,
            51.09094,
            55.25
          ],
          [
            0.19761,
            51.090682,
            53.5
          ],
          [
            0.198109,
            51.090463,
            53.5
          ],
          [
            0.19856,
            51.090279,
            53
          ],
          [
            0.198711,
            51.090216,
            53.5
          ],
          [
            0.199173,
            51.09002,
            54.75
          ],
          [
            0.200967,
            51.089252,
            55.75
          ]
        ]
      }
    }
  ]
}